Corrected accelerogram 20110222_015029_MQZ  GNS Science                         
Site MQZ       43 42 28S  172 39 13E                                            
McQueen's Valley                                                                
Instrument Quanterra_3386                                                       
Resolution: 24-bit   Instr Period: 0.0050 s   Damping: 0.700                    
Accelerogram 20110222_015029_MQZ                     Processed 2015 May 28      
10 km south of Christchurch                                                     
2011 February 22    01:50:29 UT                                                 
Epicentre  43 35 26S 172 38 01E  Bearing N07W  Dist   13km  Depth   7 km Mw 5.60
Number of points  3300    Duration  65.98 sec                                   
Instrument corrected data at 0.020 sec intervals                                
Low-pass transition band is 18.00-19.00 Hz                                      
Component E     Longitudinal Accelerometer Axis                                 
Acceleration:  peak   1336.3 mm/s/s at  22.94 sec     rms     95.2 mm/s/s       
Velocity:      peak  -140.11 mm/s   at  22.78 sec     rms     7.80 mm/s         
Displacement:  peak  -16.576 mm     at  23.00 sec     rms    2.263 mm           
    2011       2      22       1      50     298       0       0    2011       2
      43      35      26     172      38       1       7       0      22       1
      43      42      28     172      39      13      90      90     353      13
    2800     250     250    3300    3300    3300       0       0      50   12508
   200.0    0.70    0.00   0.000  0.0000   0.000   0.000   1.000     0.0    0.00
  43.708 172.654   43.59  172.63    5.86    0.00    5.60      0.      0.      0.
  686.46    5.00    5.00   65.98  0.0200  0.0200      0.      0.      0.  9806.7
 -1322.4   22.70   104.9   0.000      0.  1336.3   22.94    95.2  1575.1   0.000
 -140.11   22.78    7.80  142.40   0.000  -16.58   23.00    2.26   29.62   0.000
   0.000   0.000   0.000      0.      0.  18.000  19.000   0.000      0.      0.
    -0.0     0.0     0.0    -0.0     0.0    -0.0    -0.0     0.0    -0.0     0.0
     0.0    -0.0     0.0    -0.0    -0.0     0.0    -0.0     0.0     0.0    -0.0
     0.0    -0.0    -0.0     0.0    -0.0     0.0     0.0    -0.0     0.0    -0.0
    -0.0     0.0    -0.0     0.0    -0.0    -0.0     0.0    -0.0     0.0    -0.0
    -0.0     0.0    -0.0     0.0     0.0    -0.0     0.0    -0.0    -0.0     0.0
    -0.0     0.0     0.0    -0.0     0.0    -0.0    -0.0     0.0    -0.0     0.0
     0.0    -0.0     0.0    -0.0    -0.0     0.0    -0.0     0.0     0.0    -0.0
     0.0     0.0    -0.0     0.0    -0.0     0.0     0.0    -0.0     0.0    -0.0
    -0.0     0.0    -0.0     0.0    -0.0    -0.0     0.0    -0.0     0.0     0.0
    -0.0     0.0    -0.0     0.0     0.0    -0.0     0.0    -0.0    -0.0     0.0
    -0.0     0.0     0.0    -0.0     0.0    -0.0    -0.0     0.0    -0.0     0.0
     0.0    -0.0     0.0    -0.0    -0.0     0.0    -0.0    -0.0     0.0    -0.0
     0.0     0.0    -0.0     0.0    -0.0     0.0     0.0    -0.0     0.0    -0.0
    -0.0     0.0    -0.0     0.0     0.0    -0.0     0.0    -0.0     0.0     0.0
    -0.0     0.0    -0.0     0.0     0.0    -0.0     0.0    -0.0    -0.0     0.0
    -0.0     0.0     0.0    -0.0     0.0    -0.0    -0.0     0.0    -0.0     0.0
     0.0    -0.0     0.0    -0.0    -0.0     0.0    -0.0     0.0     0.0    -0.0
     0.0    -0.0    -0.0     0.0    -0.0     0.0     0.0    -0.0     0.0    -0.0
    -0.0     0.0    -0.0     0.0     0.0    -0.0     0.0    -0.0    -0.0     0.0
     0.0     0.0    -0.0     0.0    -0.0    -0.0     0.0    -0.0     0.0     0.0
    -0.0     0.0    -0.0    -0.0     0.0    -0.0     0.0     0.0    -0.0     0.0
    -0.0    -0.0     0.0    -0.0     0.0     0.0    -0.0     0.0    -0.0    -0.0
     0.0    -0.0     0.0     0.0    -0.0     0.0    -0.0    -0.0     0.0    -0.0
     0.0     0.0    -0.0     0.0    -0.0    -0.0     0.0    -0.0     0.0     0.0
    -0.0     0.0    -0.0    -0.0     0.0    -0.0     0.0     0.0    -0.0     0.0
    -0.0    -0.1     0.0     0.1     0.0    -0.0     0.0    -0.0    -0.1    -0.0
     0.0    -0.0    -0.0     0.0    -0.0    -0.0     0.0    -0.0     0.0     0.0
    -0.0     0.0     0.1    -0.1    -0.1     0.1     0.0    -0.1    -0.1    -0.0
     0.0     0.0    -0.0     0.0    -0.0    -0.0     0.0    -0.0    -0.1    -0.0
     0.0    -0.0    -0.0    -0.0     0.0    -0.0    -0.1    -0.0     0.0    -0.0
     0.0     0.0    -0.0     0.0     0.0    -0.0     0.0    -0.0    -0.0     0.0
    -0.0     0.0     0.0    -0.0     0.0    -0.0    -0.0     0.0    -0.0     0.0
     0.0    -0.0     0.0     0.0    -0.0     0.0    -0.0    -0.0     0.0    -0.0
     0.0     0.0    -0.0     0.0    -0.0    -0.0     0.0    -0.0     0.0     0.0
    -0.0     0.0    -0.0    -0.0     0.0    -0.0     0.0     0.0    -0.0     0.0
    -0.0    -0.0     0.0    -0.0     0.0     0.0    -0.0     0.0    -0.0    -0.0
     0.0    -0.0     0.0     0.0    -0.0     0.0    -0.0    -0.0     0.0    -0.0
     0.0    -0.0    -0.0     0.0    -0.0     0.0     0.0    -0.0     0.0    -0.0
    -0.0     0.0    -0.0     0.0    -0.0     0.0     0.0    -0.0     0.0    -0.0
    -0.0     0.0    -0.0     0.0     0.0    -0.0     0.0    -0.0    -0.0     0.0
    -0.0     0.0     0.0    -0.0     0.0    -0.0    -0.0     0.0    -0.0     0.0
     0.0    -0.0     0.0    -0.0    -0.0     0.0    -0.0     0.0     0.0    -0.0
     0.0    -0.0    -0.0     0.0    -0.0     0.0     0.0    -0.0     0.0    -0.0
    -0.0     0.0    -0.0     0.0    -0.0     0.0     0.0    -0.0     0.0    -0.0
    -0.0     0.0    -0.0     0.0     0.0    -0.0     0.0    -0.0    -0.0     0.0
    -0.0     0.0     0.0    -0.0     0.0    -0.0    -0.0     0.0    -0.0     0.0
     0.0    -0.0     0.0    -0.0    -0.0     0.0    -0.0     0.0     0.0    -0.0
     0.0    -0.0    -0.0     0.0    -0.0     0.0     0.0    -0.0     0.0    -0.0
    -0.0     0.0    -0.0     0.0    -0.0     0.0     0.0    -0.0     0.0    -0.0
    -0.0     0.0    -0.0     0.0     0.0    -0.0     0.0    -0.0    -0.0     0.0
    -0.0     0.0     0.0    -0.0     0.0    -0.0    -0.0     0.0    -0.0     0.0
     0.0    -0.0     0.0    -0.0    -0.0     0.0    -0.0     0.0     0.0    -0.0
     0.0    -0.0    -0.0     0.0    -0.0     0.0     0.0    -0.0     0.0    -0.0
     0.0     0.0    -0.0     0.0    -0.0    -0.0     0.0    -0.0     0.0    -0.0
    -0.0     0.0    -0.0     0.0     0.0    -0.0     0.0    -0.0    -0.0     0.0
    -0.0     0.0     0.0    -0.0     0.0    -0.0    -0.0     0.0    -0.0     0.0
     0.0    -0.0     0.0    -0.0    -0.0     0.0    -0.0     0.0     0.0    -0.0
     0.0    -0.0     0.0     0.0    -0.0     0.0    -0.0    -0.0     0.0    -0.0
     0.0     0.0    -0.0     0.0    -0.0    -0.0     0.0    -0.0     0.0     0.0
    -0.0     0.0     0.0    -0.0     0.0    -0.0    -0.0     0.0    -0.0     0.0
     0.0    -0.0     0.0    -0.0    -0.0     0.0    -0.0     0.0     0.0    -0.0
     0.0    -0.0    -0.0     0.0    -0.0    -0.0     0.0    -0.0     0.0     0.0
    -0.0     0.1    -0.0    -0.0     0.1    -0.1     0.0     0.0    -0.1     0.1
    -0.0    -0.1     0.2    -0.2    -0.3     0.4     0.1    -0.3     0.1     0.2
     0.3     0.0    -0.4    -0.1    -0.1    -0.2     0.5     0.2    -0.5     0.3
     0.2    -0.5     0.2     0.3    -0.3     0.1     0.2    -0.1     0.0     0.0
     0.1     0.0    -0.3     0.1     0.3    -0.3    -0.1     0.3     0.0    -0.2
    -0.0     0.1     0.2     0.1    -0.1    -0.3    -0.1     0.2     0.3     0.2
    -0.2    -0.3     0.1     0.0    -0.1     0.0    -0.1     0.3     0.3    -0.4
    -0.2     0.1    -0.0     0.1    -0.0    -0.0     0.4    -0.1    -0.1     0.0
    -0.4     0.0     0.3     0.0     0.1    -0.0    -0.0    -0.1    -0.0     0.4
    -0.0    -0.2     0.0    -0.5     0.1     0.4    -0.3     0.1    -0.2     0.1
     0.5    -0.7     0.0     0.5    -0.5     0.6    -0.1    -0.5     0.8    -1.1
     0.4     1.3    -2.6     1.6     0.6    -7.3     3.7     8.4    -4.9    -1.7
     3.4    -3.6    -0.0     2.5    -1.7     0.7    -0.8    -2.1     3.0     0.9
    -1.9     0.1    -0.7    -0.1     1.0    -0.4    -0.0     0.6     0.2    -0.3
    -1.0     0.4     0.7    -0.6     0.5     0.3    -1.2     0.0     0.4    -0.5
     0.1     0.4     0.1     0.3    -0.1    -0.6    -0.1     0.6     0.4    -0.3
    -0.4    -0.1     0.2    -0.4    -0.5     0.7     0.6    -0.4    -0.2     0.2
     0.0    -0.3    -0.4     0.2     0.6    -0.2    -0.2     0.5     0.1    -0.5
    -0.1     0.1    -0.2     0.1     0.2    -0.2     0.1     0.1    -0.1     0.2
    -0.0    -0.2     0.2    -0.3    -0.1     0.4    -0.5    -0.3     0.8     0.2
    -0.5    -0.2     0.0     0.1     0.1     0.2     0.1    -0.3    -0.0     0.2
    -0.1    -0.1     0.1     0.3    -0.1    -0.5     0.2     0.5    -0.3    -0.1
     0.1    -0.4     0.1     0.3    -0.3     0.1     0.2    -0.3     0.2     0.4
    -0.2    -0.1     0.1    -0.3     0.1     0.4    -0.0    -0.3    -0.3    -0.0
     0.4    -0.0    -0.3     0.4     0.4    -0.2    -0.0    -0.1    -0.0     0.3
    -0.1    -0.2     0.0    -0.2     0.2     0.3    -0.3     0.0     0.2    -0.2
     0.2     0.1    -0.2     0.0     0.1    -0.1    -0.0    -0.1    -0.2     0.1
     0.4    -0.0    -0.3     0.0     0.0    -0.1    -0.0     0.0     0.3    -0.1
    -0.3     0.3    -0.2    -0.1     0.5    -0.5    -0.1     0.4    -0.5     0.4
    -0.0    -0.6     1.1    -1.7    -2.1     4.1     1.8    -3.2     0.6     1.0
    -1.5     0.5     0.4    -0.3     0.3    -1.1    -0.1     1.5    -0.5    -0.5
     0.4    -0.4     0.2     0.4    -0.2     0.3     0.1    -0.3    -0.1    -0.2
     0.1     0.3    -0.1    -0.1    -0.1    -0.4    -0.1     0.1    -0.1     0.1
     0.3    -0.1    -0.1     0.1    -0.3    -0.1     0.5     0.1    -0.2    -0.1
    -0.2    -0.1    -0.1    -0.0     0.3     0.0    -0.1     0.2    -0.1     0.0
     0.1    -0.4    -0.1     0.5     0.1    -0.2     0.1    -0.1    -0.4    -0.2
     0.1     0.2    -0.0     0.1     0.2    -0.3    -0.2     0.4     0.1    -0.3
     0.1     0.0    -0.1     0.1     0.0    -0.1     0.1    -0.0    -0.1     0.1
    -0.0    -0.0     0.1     0.1     0.1    -0.1    -0.2    -0.0     0.0     0.1
     0.0    -0.0     0.1    -0.1    -0.1     0.2     0.2    -0.1    -0.3    -0.2
     0.1    -0.0    -0.0     0.2     0.0    -0.2    -0.0     0.1     0.2    -0.0
    -0.1     0.1     0.1     0.1     0.1    -0.1    -0.1    -0.2    -0.1     0.3
     0.1    -0.3     0.1     0.1    -0.2     0.0     0.1    -0.1    -0.1     0.0
     0.0     0.0    -0.0    -0.0    -0.1     0.0     0.3     0.1    -0.2     0.0
     0.1    -0.2     0.0     0.2    -0.0    -0.0    -0.0    -0.2    -0.0     0.1
    -0.0     0.0    -0.0    -0.2     0.1     0.2    -0.1    -0.1    -0.1     0.0
     0.2    -0.1    -0.2    -0.1     0.1     0.3    -0.1    -0.2     0.1    -0.2
    -0.1     0.2    -0.0     0.0     0.1    -0.1     0.1     0.1    -0.1     0.2
    -0.0    -0.2     0.0     0.1     0.0    -0.1    -0.1    -0.0     0.1     0.3
     0.1    -0.2     0.1     0.1    -0.1    -0.1    -0.2     0.1     0.3    -0.1
    -0.1     0.1    -0.2    -0.1     0.2    -0.0    -0.1     0.1    -0.0    -0.1
     0.2    -0.1    -0.3     0.2     0.3    -0.0    -0.2    -0.1    -0.0     0.0
     0.1    -0.0    -0.0    -0.0    -0.1     0.1     0.3    -0.1     0.0     0.1
    -0.3     0.1     0.2    -0.2     0.2     0.2    -0.2    -0.0    -0.0    -0.1
    -0.0     0.0     0.1    -0.0    -0.0     0.0    -0.0     0.2    -0.0    -0.2
     0.2    -0.0     0.1     0.1    -0.2    -0.1     0.0    -0.0     0.1     0.0
     0.1     0.0    -0.2    -0.1     0.1     0.1    -0.0    -0.1     0.3    -0.0
    -0.3     0.1     0.1     0.2    -0.2    -0.1     0.4    -0.3    -0.2     0.4
    -0.4     0.1     0.3    -0.4     0.3    -0.2    -0.3     0.5    -0.2     0.1
     0.2    -0.5     0.4    -0.0    -0.3     0.4    -0.4     0.1     0.4    -0.3
     0.3    -0.2    -0.1     0.4    -0.5     0.4     0.0    -0.6     0.7    -0.4
    -0.1     0.7    -0.8     0.4     0.1    -0.7     0.9    -0.7    -0.1     0.9
    -1.2     0.7     0.3    -1.0     1.2    -0.7    -0.2     1.1    -1.2     0.2
    -0.7    -0.9     1.7    -1.5    -0.7    -2.1    -4.5     6.1     0.0   -12.7
     2.5     8.5    -0.8     7.1    11.1    -1.2    -6.4    -2.2     0.9     5.6
     0.2   -15.8     5.4    44.1    30.4    -7.4   -25.0   -19.0   -12.4   -27.2
    -1.1    30.3    -4.7    11.6    38.5    -5.0    17.5    19.9   -25.7    42.4
    31.4   -51.4    35.9    66.4   -24.2    15.2   115.5   107.4   -28.6   -79.3
    46.7   -22.3  -188.0   -23.9   134.5    11.3   -68.2    18.8   117.7    35.2
  -168.2  -130.2    87.9   134.4    74.1    86.8    86.8   -17.5   -84.9    -5.5
    42.7   -13.4   -16.1    29.5    38.8     3.9   -53.6   -13.0    95.2    42.0
   -67.1     2.4    44.0   -68.9   -73.5     4.8   -35.8   -71.1   -21.7    10.6
   -11.8   -60.6   -32.4    38.5    16.6    14.7    64.9    37.7     6.5     0.1
     2.0    67.7    66.6    -0.3    23.5    35.3    29.1    63.2   -32.6  -130.9
   -30.7    -2.3  -122.8  -115.5    32.8   179.9   193.8    -5.8  -183.6  -200.6
  -294.8  -421.5  -271.5    45.5   171.0   115.2   138.0   164.0    26.2   -89.2
  -161.6  -274.1  -279.1  -459.0 -1000.1 -1322.3 -1263.5 -1107.5  -804.2  -320.5
   327.4   787.0   759.2   926.0  1039.2   310.5   301.5  1336.3   947.6  -130.7
   412.9  1223.1  1057.9   598.7  -255.5  -864.4  -402.3  -248.7  -893.4  -896.7
  -291.7   -96.4     4.5   466.2   606.4   323.8   558.8   975.9   693.2   356.7
   309.8    -9.5  -427.2  -661.3  -688.4  -591.1  -661.7  -431.3    91.0   -87.1
  -269.8   265.8   293.9  -119.7   147.1   585.6   496.7   136.8  -133.9  -222.0
  -141.2   165.9   292.5   -65.1  -235.2  -140.2  -247.6  -167.3    58.8   -37.0
  -225.5  -476.0  -650.1  -349.5   -74.4  -115.1   -74.0   -43.4    58.6   426.1
   512.3   243.8    82.4   -88.4  -202.7   -48.5   -93.2  -309.4  -116.1   194.0
   292.3   380.7   258.1    31.6   124.6   179.3   114.7   199.4     5.3  -292.9
   -41.6   320.5   363.5   292.6   145.3    72.5    99.7   -45.1  -138.1     7.7
    32.9   -94.1  -117.9  -142.3  -241.9  -204.7   -83.5  -101.0   -97.6    20.9
    -4.5  -141.4  -147.2   -51.5    34.9    47.5   -68.5  -207.7  -146.1    73.4
   128.0    36.0    38.4    41.1    35.3   127.3   120.7    17.2    34.5   117.1
   136.3    44.6   -86.3  -135.9  -115.8    -2.1    81.5   -26.6   -38.9    75.3
     9.8   -35.9    28.4   -20.9   -24.2    80.0    86.0    18.6   -41.5   -65.7
   -41.3    -7.8    30.7    -0.3  -105.7  -104.5   -44.7  -105.9  -148.7   -17.9
    53.2   -90.7  -144.3    -3.7    57.8    58.5    73.4    24.7    64.0   143.8
    73.7    88.1   181.7    70.3   -22.7    57.6    53.5   -13.3    -6.0   -23.4
   -61.4   -46.9   -53.8   -73.6   -18.4    25.0   -11.0   -20.0    -9.1   -53.1
   -51.2    46.6   106.9    51.2   -60.0  -114.3   -69.3    -1.7    28.6    15.2
   -32.9   -35.1    16.9     4.1   -34.7    -5.6    -5.9   -44.8   -24.3   -18.9
   -68.7   -78.3   -47.3   -33.6   -53.8   -67.8   -22.2    25.8    25.9     3.6
   -44.4   -42.1    62.1   131.2   115.4    79.4    16.6   -31.9    -3.3    39.7
    18.2    -7.6    40.7    80.1    80.2    92.5    36.2    -2.2    86.2    63.2
   -43.6   -34.3   -83.5  -121.5    -9.5   -60.7  -212.8  -142.0   -12.3    16.8
    -9.6   -49.9    11.8    93.2    33.0   -21.1    10.6    -9.4   -23.5    93.2
   173.3    63.2   -47.4   -12.7    26.2   -25.4   -54.8    29.0    49.2  -109.1
  -139.2    27.8    66.5    22.1    36.3    16.4    23.9    49.3    -1.7   -30.1
   -40.1   -30.6    62.9    88.9    48.5    49.7   -14.0   -50.7    42.6    42.6
   -57.8   -73.2   -38.1   -22.0   -27.9   -31.9    11.8    60.8    73.9    51.2
   -21.4   -41.1    34.6    32.5   -46.0   -50.7   -27.9    -6.4    31.0   -11.2
   -41.8    55.4    76.8   -13.8   -15.0     3.5   -39.9   -43.0   -40.8   -47.9
     0.0     3.7   -28.1    28.0    42.5   -33.3   -15.5    33.3   -11.0   -33.3
   -26.9   -41.4    -1.0    -3.8  -109.5   -68.1   112.4   138.5    66.2    61.2
    42.2     9.0    -9.7   -60.6   -20.3    82.9    37.8   -20.9     5.7   -29.6
   -28.2    23.0   -27.8   -44.4     3.2   -17.2   -67.4  -127.4   -77.1    75.0
    16.1   -73.4    44.9    49.0    20.9   143.8    88.8   -34.5    25.3    12.7
   -64.6   -29.4    11.4    49.1    98.5    52.2   -49.5   -78.0   -49.5   -75.9
  -108.3   -55.4   -12.1    28.6    89.4    11.5   -83.9     6.8    99.7    86.0
    76.6    63.1    24.9    26.8    51.2    -0.9   -75.0   -46.8    -4.1    12.4
    61.6    42.8   -11.0   -23.8   -88.0   -85.6    -2.1   -42.0   -67.0   -11.9
   -24.7   -17.7   -28.3  -100.7   -42.3    44.9    18.1     8.1    42.0    84.7
    57.5   -59.4   -47.7    37.0     1.2     3.2    41.9     2.8    40.1   105.2
    60.8    28.0    15.6    -9.3    -6.9   -49.7   -36.0    93.9    52.4   -70.8
     9.4    43.5   -28.2    44.8    76.6   -31.9   -67.5   -76.9   -95.2   -18.8
    63.3    24.0   -85.0   -68.9    50.7    13.0   -81.2   -41.1   -21.0   -22.3
    16.6    -3.9   -13.1    13.7     5.5    33.3    66.7    41.4     2.7   -22.9
    -0.6    20.9    11.7    33.5    -3.0   -53.7    26.0    52.7   -33.6   -71.0
   -75.5   -20.9    74.7    62.6    -0.7   -43.3   -56.6    12.6    51.0    -5.8
   -31.7   -14.2     6.6    30.7    40.1    45.1    35.3    20.3    32.2    13.1
   -31.7   -28.9   -18.4   -16.4    25.1    44.8   -10.1   -34.7    15.9    29.4
    -3.4   -12.1   -42.3   -76.8   -26.9    32.4    21.5    -0.5     2.1    12.8
    12.0   -15.7   -30.1   -10.2   -22.7   -43.4    13.7    46.3   -20.1   -45.0
   -13.2    -3.1    21.1    27.1     6.8    28.0    18.7   -34.3   -38.7   -11.6
     5.8   -25.1   -51.0    30.1    55.0   -39.4   -34.1    28.7    29.6    31.6
    12.4     1.5    40.6    33.5    16.5    32.9    17.1     1.1    -9.4   -27.0
    -9.5    -7.0   -28.5   -26.4   -23.8    -8.1     7.2    -2.2     5.6   -16.4
   -35.9    43.1    61.2   -28.2   -34.9     8.5    21.6    38.7    19.8    -8.5
   -12.3   -31.9    -9.6    26.4     3.9    15.1    31.3   -10.2   -26.5   -39.1
   -32.0    26.3    -2.2   -47.8   -16.5   -51.9   -64.9    11.6     1.8   -14.4
    22.0    10.8    44.1    72.1     5.2    11.6    50.4    17.1    30.2    57.1
    24.7   -13.5   -45.7   -24.2    33.9    27.4     3.9    -0.1   -22.7   -41.7
   -51.2   -26.7    30.2    30.7     8.1    20.1     7.9    -8.9    -2.5   -21.0
   -29.1    -3.0    -6.6   -33.9   -34.0   -18.8   -11.8    -3.7     7.9    23.8
    47.0    26.8   -41.5   -49.2     6.6    15.5   -17.1   -31.9   -31.4   -25.2
   -13.2     8.8    29.9    24.2    13.6    21.3    29.2    31.8    29.8    25.0
    27.8    27.3    17.1     8.5     8.3    18.0    22.7     9.9   -18.0   -41.4
   -17.4    28.5    16.9   -25.6   -38.0   -37.9   -28.9   -11.7   -19.1   -28.2
    -6.3    14.6    20.3    19.1     3.3     4.0    24.6     4.9   -13.3    18.1
    12.3   -18.1     4.7    10.1   -18.1   -15.4   -13.1   -18.9    -9.7   -10.0
   -12.2     2.2    29.5    42.4    19.6    15.2    23.9    -2.9    -7.6    -1.6
   -26.9   -23.4   -24.2   -45.4   -31.9   -42.5   -32.1    50.6    37.9   -31.0
    -2.3    14.9     3.9    52.0    66.3    20.1    -0.7     8.4    22.2    19.3
    -0.0    -6.7   -12.9   -27.0   -23.2    -3.7     1.2   -17.1   -20.0     3.2
     8.8     4.0     6.7    -6.9   -11.5     3.4   -12.1   -34.0   -15.4     6.2
     3.6    -6.2   -15.9   -15.8    -5.7    -5.6    -3.9    13.2    12.4   -10.4
   -10.1     5.3     6.2    10.9    15.6     4.8     9.8    24.9    17.1     9.5
    11.6     5.8     5.4    -1.3   -19.7    -9.7     5.7    -9.2   -13.3    -1.1
     4.0    11.4     1.1   -12.1    13.6    27.7     8.3    -1.2   -13.4   -21.1
    -9.8   -14.9   -11.8     6.1    -4.5    -2.2    17.5     8.1     6.1     6.4
   -15.5   -16.1   -10.2   -10.5     1.0   -14.2   -32.7   -18.2   -12.4     8.2
