Uncorrected accelerogram D00129A02            Inst Geological & Nuclear Sciences
Site location unknown                                     DCA file .. MN640073  
Site name unknown                                                               
Instrument DCA_464                                                              
                                                                                
Accelerogram D00129A02                              Processed 2004 September 06 
Unnamed Earthquake                                                              
2000 April 29       20:16:30 UT                                                 
Epicentre  41 34 41S 172 13 37E                             Depth  12Rkm Ml 3.90
Number of points   1483    Duration  14.83 seconds                              
Raw readings in units of 1.00 mm/s/s at intervals of 0.010 s                    
Data is unfiltered                                                              
                                                                                
Acceleration:  Peak     58.3 mm/s/s at   3.61 s     RMS     8.62 mm/s/s         
Velocity record unevaluated                                                     
Displacement record unevaluated                                                 
    2000       4      29      20      16     302       0       0       0       0
      41      34      41     172      13      37      12       0       0       0
       0       0       0       0       0       0       0       0       0       0
    1483       0       0    1483       0       0       0       0       0       0
    30.0    0.75    0.00   0.000  0.0000   0.000   0.000   1.000     0.0    0.00
   0.000   0.000  41.578 172.227    3.90    0.00    0.00      0.      0.      0.
   14.82    0.00    0.00   14.83  0.0100  0.0100      0.      0.      0.  9807.0
    58.3    3.61     8.6      0.      0.     0.0    0.00     0.0     0.0   0.000
    0.00    0.00    0.00    0.00   0.000    0.00    0.00    0.00    0.00   0.000
   0.000   0.000   0.000      0.      0.   0.000   0.000   0.000      0.      0.
   0.898   0.898   0.898   0.898   0.898   0.898   0.898   0.898   0.898   0.898
   0.898   0.898   0.898   0.898   0.898   0.898   0.898   0.898   0.898   0.898
   0.898   0.898   0.898   0.898   0.898   0.898   0.898   0.898   0.898   0.898
   0.898   0.898   0.898   0.898   0.898   0.898   0.898   0.898   0.898   0.898
   0.898   0.898   0.898   0.898   0.898   0.898   0.898   0.898   0.898   0.898
   0.898   0.898   0.898   0.898   0.898   0.898   0.898   0.898   0.898   0.898
   0.898   0.898   0.898   0.898   0.898  -8.682  -8.682   0.898   0.898   0.898
   0.898   0.898   0.898   0.898   0.898   0.898   0.898   0.898   0.898   0.898
   0.898   0.898   0.898   0.898   0.898   0.898   0.898   0.898   0.898   0.898
   0.898   0.898   0.898   0.898   0.898   0.898   0.898   0.898   0.898   0.898
   0.898   0.898   0.898   0.898   0.898   0.898   0.898   0.898   0.898   0.898
   0.898   0.898   0.898   0.898   0.898   0.898   0.898   0.898  -8.682   0.898
   0.898   0.898   0.898   0.898   0.898   0.898  10.478   0.898   0.898   0.898
   0.898  -8.682   0.898   0.898   0.898   0.898   0.898   0.898   0.898   0.898
   0.898   0.898   0.898   0.898   0.898   0.898   0.898   0.898   0.898   0.898
   0.898   0.898   0.898   0.898   0.898   0.898   0.898   0.898   0.898   0.898
   0.898   0.898   0.898   0.898   0.898   0.898   0.898   0.898   0.898   0.898
   0.898   0.898   0.898   0.898   0.898   0.898   0.898   0.898   0.898   0.898
   0.898   0.898   0.898   0.898  -8.682  -8.682   0.898  -8.682   0.898   0.898
  -8.682   0.898  -8.682   0.898   0.898   0.898  10.478   0.898  10.478   0.898
   0.898   0.898   0.898   0.898   0.898   0.898   0.898   0.898   0.898   0.898
  10.478   0.898  -8.682   0.898  -8.682  -8.682  -8.682   0.898   0.898   0.898
   0.898  10.478   0.898   0.898  10.478  10.478  10.478   0.898   0.898   0.898
   0.898  -8.682  -8.682   0.898   0.898   0.898   0.898   0.898   0.898   0.898
   0.898   0.898   0.898   0.898   0.898   0.898   0.898   0.898   0.898   0.898
   0.898   0.898   0.898   0.898   0.898   0.898   0.898   0.898   0.898   0.898
   0.898  -8.682  -8.682   0.898   0.898   0.898   0.898   0.898   0.898   0.898
   0.898   0.898   0.898   0.898   0.898   0.898   0.898   0.898   0.898  10.478
  10.478   0.898   0.898   0.898  -8.682   0.898   0.898   0.898   0.898   0.898
   0.898   0.898   0.898  10.478   0.898   0.898   0.898  -8.682  -8.682   0.898
   0.898   0.898   0.898   0.898   0.898   0.898   0.898   0.898   0.898   0.898
   0.898  -8.682   0.898   0.898   0.898   0.898   0.898   0.898   0.898   0.898
   0.898   0.898   0.898   0.898   0.898   0.898   0.898   0.898   0.898   0.898
   0.898   0.898   0.898   0.898   0.898   0.898   0.898   0.898   0.898   0.898
   0.898   0.898   0.898   0.898   0.898   0.898   0.898   0.898   0.898   0.898
   0.898  -8.682  -8.682 -18.262 -37.402 -37.402 -37.402 -37.402 -18.262  10.478
  39.198  58.338  48.758  39.198  20.038  20.038  20.038  29.618  20.038   0.898
 -18.262 -37.402 -27.822   0.898  10.478   0.898 -18.262 -18.262  -8.682  10.478
  10.478  -8.682   0.898  10.478  10.478  -8.682 -18.262 -18.262 -18.262   0.898
   0.898  -8.682   0.898  10.478  10.478  10.478   0.898   0.898  20.038  20.038
  10.478   0.898 -18.262 -18.262 -18.262 -18.262 -18.262  -8.682   0.898  -8.682
 -18.262 -18.262   0.898   0.898   0.898  20.038  29.618  29.618  10.478   0.898
   0.898   0.898  -8.682  -8.682  -8.682   0.898  10.478   0.898   0.898   0.898
   0.898  -8.682 -18.262 -27.822 -27.822 -18.262  -8.682  -8.682   0.898  10.478
  10.478  10.478  10.478   0.898  10.478  20.038  10.478  10.478  10.478   0.898
 -18.262  -8.682   0.898  -8.682  -8.682  -8.682  -8.682  -8.682  -8.682   0.898
   0.898  -8.682   0.898  10.478  20.038  20.038  20.038  20.038  10.478   0.898
   0.898  -8.682 -18.262 -18.262 -18.262  -8.682  -8.682   0.898   0.898   0.898
   0.898   0.898   0.898  10.478  10.478   0.898  -8.682  -8.682   0.898   0.898
   0.898  10.478  20.038  10.478  10.478  10.478  10.478   0.898   0.898  -8.682
 -18.262 -18.262 -18.262 -18.262  -8.682   0.898  10.478  20.038  20.038  10.478
  10.478   0.898   0.898  -8.682 -18.262 -27.822 -27.822 -18.262  -8.682  10.478
  10.478  10.478  10.478  20.038  10.478   0.898   0.898  -8.682  -8.682   0.898
  -8.682  -8.682   0.898   0.898   0.898   0.898  -8.682  -8.682  -8.682   0.898
  10.478  10.478  10.478  20.038  29.618  29.618  20.038  10.478   0.898  -8.682
  -8.682 -18.262 -27.822 -27.822 -18.262 -18.262 -18.262 -27.822 -18.262  -8.682
  10.478  20.038  20.038  10.478  10.478  10.478  10.478   0.898   0.898   0.898
   0.898  10.478  10.478  10.478   0.898  -8.682 -18.262 -18.262 -18.262 -18.262
  -8.682  -8.682  -8.682   0.898  10.478  20.038  20.038  20.038  20.038  20.038
  10.478  10.478  10.478  10.478  10.478   0.898  -8.682 -18.262 -18.262 -18.262
  -8.682  -8.682  -8.682  -8.682  -8.682   0.898   0.898  -8.682  -8.682  -8.682
  -8.682   0.898  10.478   0.898  -8.682  -8.682   0.898   0.898   0.898  -8.682
  -8.682  -8.682   0.898   0.898  10.478  10.478   0.898   0.898   0.898   0.898
  10.478  20.038  20.038   0.898  -8.682  -8.682   0.898   0.898   0.898   0.898
  -8.682  -8.682   0.898  -8.682  -8.682   0.898  10.478  10.478   0.898   0.898
   0.898   0.898  -8.682  -8.682  -8.682  -8.682  -8.682  -8.682  -8.682  -8.682
   0.898   0.898  10.478   0.898   0.898  10.478  10.478  10.478   0.898   0.898
   0.898  -8.682  -8.682  -8.682   0.898   0.898  10.478   0.898  -8.682  -8.682
   0.898  10.478  10.478  10.478   0.898   0.898  -8.682   0.898   0.898   0.898
   0.898  -8.682  -8.682  -8.682  -8.682   0.898  10.478  10.478  10.478  10.478
  10.478  10.478  10.478  10.478  10.478   0.898   0.898  -8.682  -8.682  -8.682
  -8.682  -8.682  -8.682   0.898   0.898  -8.682  -8.682   0.898  10.478  10.478
  10.478   0.898   0.898   0.898   0.898   0.898   0.898   0.898  -8.682  -8.682
   0.898   0.898   0.898  10.478  10.478  10.478  10.478  10.478  10.478   0.898
   0.898  -8.682 -18.262 -18.262 -18.262 -18.262 -18.262  -8.682   0.898   0.898
   0.898   0.898  10.478  10.478  10.478  10.478   0.898   0.898   0.898   0.898
   0.898  -8.682  -8.682   0.898   0.898   0.898   0.898   0.898  -8.682  -8.682
  -8.682  -8.682  -8.682  -8.682  -8.682  -8.682  -8.682  -8.682  -8.682   0.898
  10.478  20.038  20.038  10.478  10.478   0.898   0.898   0.898   0.898   0.898
   0.898   0.898  10.478  20.038  29.618  29.618  29.618  20.038  20.038  10.478
   0.898  -8.682 -18.262 -27.822 -27.822 -27.822 -27.822 -18.262 -18.262  -8.682
  -8.682   0.898   0.898   0.898   0.898   0.898   0.898   0.898   0.898   0.898
   0.898  10.478   0.898   0.898  -8.682  -8.682  -8.682  -8.682  -8.682  -8.682
  -8.682  -8.682   0.898   0.898   0.898  10.478  20.038  10.478  10.478  20.038
  10.478  10.478  10.478  10.478   0.898  -8.682  -8.682  -8.682 -18.262  -8.682
  -8.682   0.898   0.898   0.898   0.898   0.898   0.898   0.898  10.478   0.898
   0.898   0.898   0.898   0.898   0.898   0.898   0.898   0.898   0.898  -8.682
 -18.262 -18.262 -18.262 -18.262 -18.262  -8.682  -8.682  -8.682  -8.682   0.898
   0.898  10.478  20.038  20.038  20.038  20.038  10.478  10.478   0.898   0.898
  -8.682  -8.682  -8.682  -8.682 -18.262 -18.262  -8.682   0.898  10.478  10.478
  10.478  10.478  10.478  20.038  10.478  10.478  10.478  10.478   0.898   0.898
   0.898   0.898  -8.682   0.898   0.898   0.898   0.898  -8.682  -8.682  -8.682
  -8.682  -8.682  -8.682   0.898  -8.682   0.898   0.898   0.898   0.898   0.898
   0.898   0.898  -8.682  -8.682  -8.682 -18.262  -8.682  -8.682   0.898   0.898
  10.478  10.478  10.478   0.898   0.898   0.898  10.478  10.478   0.898   0.898
  -8.682  -8.682  -8.682   0.898   0.898  -8.682  -8.682  -8.682  -8.682  10.478
  10.478  10.478  10.478  10.478  10.478   0.898   0.898   0.898   0.898  -8.682
  -8.682  -8.682 -18.262 -18.262  -8.682   0.898   0.898   0.898   0.898   0.898
   0.898   0.898   0.898   0.898  -8.682  -8.682   0.898   0.898   0.898   0.898
  10.478   0.898   0.898   0.898   0.898   0.898  -8.682  -8.682  -8.682   0.898
   0.898   0.898   0.898   0.898  -8.682  -8.682   0.898   0.898   0.898   0.898
   0.898   0.898  10.478  10.478  10.478  10.478   0.898   0.898   0.898   0.898
   0.898   0.898   0.898  -8.682   0.898  -8.682   0.898   0.898   0.898   0.898
   0.898  10.478  10.478  10.478  10.478   0.898   0.898  -8.682  -8.682  -8.682
  -8.682  -8.682  -8.682  -8.682  -8.682  -8.682  -8.682   0.898   0.898  10.478
  10.478  10.478   0.898   0.898   0.898  10.478  10.478  10.478  10.478   0.898
   0.898   0.898  10.478  10.478   0.898   0.898   0.898   0.898  -8.682  -8.682
 -18.262 -18.262  -8.682   0.898   0.898   0.898   0.898   0.898  10.478  10.478
  10.478   0.898   0.898   0.898  -8.682  -8.682  -8.682  -8.682  -8.682  -8.682
  -8.682  -8.682  -8.682   0.898   0.898   0.898  10.478  10.478  10.478  10.478
   0.898  10.478  10.478   0.898   0.898   0.898   0.898   0.898  -8.682   0.898
  -8.682   0.898   0.898  -8.682  -8.682  -8.682   0.898   0.898   0.898   0.898
   0.898   0.898   0.898  10.478  10.478   0.898   0.898   0.898   0.898  10.478
   0.898   0.898   0.898   0.898  10.478  10.478   0.898   0.898   0.898   0.898
   0.898   0.898  -8.682  -8.682  -8.682  -8.682  -8.682  -8.682  -8.682  -8.682
   0.898   0.898   0.898   0.898   0.898   0.898   0.898   0.898   0.898   0.898
  -8.682  -8.682  -8.682   0.898   0.898  10.478   0.898   0.898   0.898  -8.682
  -8.682   0.898   0.898   0.898   0.898   0.898   0.898   0.898  10.478  10.478
  10.478  10.478  10.478   0.898   0.898   0.898   0.898   0.898   0.898   0.898
  -8.682  -8.682  -8.682  -8.682  -8.682  -8.682   0.898   0.898   0.898   0.898
   0.898   0.898   0.898   0.898   0.898   0.898   0.898   0.898   0.898   0.898
   0.898   0.898   0.898   0.898   0.898   0.898   0.898   0.898   0.898   0.898
   0.898   0.898  -8.682  -8.682  -8.682   0.898  -8.682  -8.682  -8.682  -8.682
   0.898   0.898   0.898   0.898   0.898   0.898   0.898  10.478  10.478   0.898
   0.898   0.898   0.898   0.898   0.898   0.898   0.898   0.898   0.898   0.898
   0.898   0.898   0.898   0.898   0.898   0.898   0.898   0.898   0.898   0.898
   0.898   0.898   0.898   0.898   0.898   0.898   0.898   0.898   0.898  -8.682
  -8.682   0.898   0.898   0.898   0.898   0.898   0.898   0.898   0.898   0.898
   0.898  10.478  10.478   0.898   0.898   0.898   0.898   0.898  -8.682  -8.682
   0.898   0.898   0.898   0.898   0.898   0.898   0.898   0.898  10.478  10.478
   0.898   0.898   0.898   0.898   0.898   0.898   0.898   0.898   0.898   0.898
   0.898   0.898   0.898   0.898   0.898   0.898   0.898   0.898  -8.682  -8.682
  -8.682  -8.682  -8.682   0.898   0.898   0.898   0.898  -8.682  -8.682   0.898
   0.898   0.898   0.898   0.898   0.898   0.898   0.898  10.478  10.478   0.898
   0.898   0.898   0.898   0.898   0.898   0.898   0.898   0.898   0.898   0.898
   0.898   0.898   0.898   0.898   0.898   0.898   0.898   0.898   0.898  -8.682
  -8.682  -8.682  -8.682  -8.682  -8.682  -8.682   0.898   0.898   0.898   0.898
   0.898   0.898   0.898   0.898   0.898   0.898   0.898   0.898   0.898   0.898
   0.898  10.478  10.478   0.898   0.898   0.898   0.898   0.898   0.898   0.898
   0.898   0.898  -8.682  -8.682  -8.682   0.898   0.898   0.898   0.898   0.898
   0.898   0.898   0.898   0.898  -8.682  -8.682  -8.682  -8.682  -8.682  -8.682
   0.898   0.898  -8.682  -8.682   0.898   0.898   0.898   0.898   0.898   0.898
   0.898  10.478  10.478  10.478  10.478   0.898   0.898   0.898   0.898   0.898
   0.898   0.898   0.898   0.898   0.898   0.898   0.898   0.898   0.898   0.898
   0.898   0.898  -8.682   0.898   0.898  -8.682   0.898  -8.682   0.898   0.898
   0.898   0.898   0.898   0.898   0.898   0.898   0.898   0.898   0.898   0.898
   0.898   0.898   0.898   0.898   0.898   0.898   0.898   0.898  -8.682   0.898
   0.898   0.898   0.898   0.898   0.898   0.898   0.898   0.898   0.898   0.898
   0.898   0.898   0.898
