Corrected accelerogram D5054A01     Institute of Geological & Nuclear Sciences  
Site 054A     043 53 03S  169 02 35E                      DCA file .. HS385101  
Haast DOC Workshop                                                              
Instrument DCA_338     Model 333R, Case 338, Ramdeck 297, Board 338, Torquer 329
Resolution 12 bit, Frequency 30Hz, Damping 70%, Trigger 0.2% of 2g.             
Accelerogram D5054A01                                Processed 2001 May 03      
Olivine Range                                                                   
1995 September 26   1653 UT                                                     
Epicentre  44 13 48S 168 19 12E  Bearing S56W  Dist   69km  Depth   5Rkm Ml 5.30
Number of points  1779    Duration  35.56 sec                                   
Instrument corrected data at 0.020 sec intervals                                
Band-pass filter transition bands are  0.18- 0.33 Hz and 24.50-25.50 Hz         
Component N80E  Longitudinal Accelerometer Axis                                 
Acceleration:  peak   -159.9 mm/s/s at   9.40 sec     rms     23.0 mm/s/s       
Velocity:      peak    -4.36 mm/s   at   8.96 sec     rms     0.83 mm/s         
Displacement:  peak   -0.347 mm     at   9.00 sec     rms    0.078 mm           
    1995       9      26      16      53     353       0       0       0       0
      44      13      48     168      19      12       5       0       0       0
      43      53       3     169       2      35      80      80     236      69
    2555     250     250    1779    1779    1779       0       0       0       0
    30.0    0.75    0.00   0.000  0.0000   0.000   0.000   1.000     0.0    0.00
  43.884 169.043   44.23  168.32    5.30    0.00    0.00      0.      0.      0.
   25.54    5.00    5.00   35.56  0.0100  0.0200      0.      0.      0.  9807.0
   162.5    9.00    27.0   0.000      0.  -159.9    9.40    23.0   167.8   8.423
   -4.36    8.96    0.83    5.03   1.196   -0.35    9.00    0.08    0.43   1.196
   0.180   0.150   0.330      0.      0.  24.500   1.000  25.500      0.      0.
     0.0     0.0     0.0     0.0     0.0     0.0     0.0     0.0     0.0     0.0
     0.0     0.0     0.0     0.0     0.0     0.0     0.0     0.0     0.0     0.0
     0.0     0.0     0.0     0.0     0.0     0.0     0.0     0.0     0.0     0.0
     0.0     0.0     0.0     0.0     0.0     0.0     0.0     0.0     0.0     0.0
     0.0     0.0     0.0     0.0     0.0     0.0     0.0     0.0     0.0     0.0
     0.0     0.0     0.0     0.0     0.0     0.0     0.0     0.0     0.0     0.0
     0.0     0.0     0.0     0.0     0.0     0.0     0.0     0.0     0.0     0.0
     0.0     0.0     0.0     0.0     0.0     0.0     0.0     0.0     0.0     0.0
     0.0     0.0     0.0     0.0     0.0     0.0     0.0     0.0     0.0     0.0
     0.1     0.0     0.1     0.0     0.1     0.0     0.1     0.0     0.1     0.0
     0.1     0.0     0.1     0.0     0.1     0.0     0.1     0.0     0.1     0.0
     0.1     0.0     0.1     0.0     0.1     0.0     0.1     0.0     0.1     0.0
     0.1     0.0     0.1     0.0     0.1     0.0     0.1     0.0     0.1     0.0
     0.1     0.0     0.1     0.0     0.1     0.0     0.1     0.0     0.1     0.0
     0.1     0.0     0.1     0.0     0.0     0.0     0.0     0.0     0.0     0.0
     0.0     0.0     0.0     0.0     0.0     0.0     0.0     0.0     0.0     0.0
     0.0     0.0     0.0     0.0     0.0     0.0     0.0    -0.1     0.0    -0.1
     0.0    -0.1     0.0    -0.1     0.0    -0.1     0.0    -0.1     0.0    -0.1
    -0.1    -0.1    -0.1    -0.1    -0.1    -0.1    -0.1    -0.1    -0.1    -0.1
    -0.1    -0.2    -0.1    -0.2    -0.1    -0.2    -0.1    -0.2    -0.1    -0.2
    -0.1    -0.2    -0.1    -0.2    -0.1    -0.2    -0.1    -0.2    -0.1    -0.2
    -0.2    -0.2    -0.2    -0.2    -0.2    -0.3    -0.2    -0.3    -0.2    -0.3
    -0.2    -0.3    -0.2    -0.3    -0.2    -0.3    -0.2    -0.3    -0.2    -0.3
    -0.2    -0.3    -0.1    -0.4    -0.1    -0.4    -0.1    -0.4    -0.1    -0.4
    -0.1    -0.4    -0.1    -0.5    -0.1    -0.5     0.0    -0.5     0.0    -0.5
    -0.3    -0.6    -0.7     4.6    16.0     7.1    -4.7    -2.2     6.0    -2.4
     3.6     0.1    -4.2    -5.1   -11.3     3.1     7.6    -2.6    -4.7     1.9
    14.5    20.2     0.3     1.3    -7.5   -10.5    -5.7    13.6    14.5   -15.6
    -2.1    -6.7    -5.8     3.3     7.7    11.4     0.8   -10.9   -10.1   -22.0
   -10.5    12.4     1.0     1.1     9.3    -7.5   -10.7    -8.5     0.6    -6.2
   -12.1    15.5    24.6    10.9     3.9   -19.9   -11.2     1.4    10.8     2.2
     0.5    10.2     9.0     8.5    -1.1    -0.2   -16.4   -26.0    -7.1    14.6
    -1.3     9.0     0.9    -9.2     0.1     5.0    -1.6    12.7    15.0   -10.6
   -24.0   -13.8    21.6     7.3    -8.7     0.8    12.1     0.6     7.3     7.6
     1.6   -13.7   -13.3    19.4    17.0   -14.0   -31.3    -9.6     5.7    11.1
    12.4    12.6     0.6   -10.5    -4.1     2.7    -8.0    -8.7   -11.8   -18.3
    -3.6    20.3    21.3     7.6    -2.2    -3.4    -3.3    -5.6    -0.8     7.2
     0.0    -2.7     2.3    -2.1     2.3    -2.7     5.1    13.0     8.3    -1.5
     2.7    -9.2   -18.0    -9.6    14.0    13.6    -3.0     2.7    -3.0    -8.1
     1.8     9.4    -1.6     1.7    -1.5     2.3    -7.7    -8.0    -3.8    -5.6
     0.8    11.4   -14.7   -13.8     9.6     3.0    -1.0     5.4     0.2     0.1
     0.1     0.2    -0.1     0.8    15.8    21.7     5.5   -12.5    10.5     0.7
    -9.4   -15.8   -15.0    16.4    29.8    27.5    13.3     3.3    -6.0   -16.2
   -42.5   -62.0   -41.4   -10.8     8.2    19.7    24.5    47.7    41.3    14.9
    -8.8   -26.0   -45.8   -53.5   -55.3   -31.7   -13.7    16.7    40.7    53.5
    58.9    51.6    39.6     9.4   -18.1   -30.1   -26.6    -1.4    28.6    38.2
    39.2    26.2   -19.3   -38.6   -39.4   -31.0   -17.5   -20.6     0.0    22.0
    27.2    13.3   -16.1   -46.4   -31.6    -5.6    -3.8   -19.2   -30.3   -17.0
    29.0    24.4   -11.8   -12.8    30.4    57.1    49.6    14.0   -13.3   -22.2
     7.8    41.6    34.7    23.9   -24.6   -73.0   -94.0   -78.4   -43.3    15.0
    74.7    80.7    55.8    49.1    22.3     8.4   -31.4   -62.7   -30.5    14.6
    13.8     2.7   -12.4   -39.8   -29.6    20.7    82.2   106.4    63.0   -28.3
   -72.9   -77.5   -58.0   -36.6   -40.1    -2.8     8.6    -1.7   -16.8   -19.4
   -25.6    -7.1    52.9    67.8    55.1     3.4   -22.5   -29.2   -24.0     6.1
    36.3    39.1    42.8    13.3   -13.4   -21.6     0.4    42.6    42.6     0.4
   -26.1   -25.8     8.4    10.4   -35.6   -68.6   -69.5   -37.8   -17.5   -22.5
     8.0    41.2    30.1    10.4    -2.1   -11.8   -19.5   -19.9    21.3    57.4
    32.8    -7.1   -15.8    21.3    64.0    77.8    65.1     6.2   -74.0   -98.5
   -47.7    25.7    49.8    17.3   -26.2   -27.6   -17.8    -9.6    12.3    38.7
    47.2     7.7   -67.2   -95.4   -68.1   -33.3     5.2    44.6    56.8    29.0
    -5.8   -33.1    -1.6    43.3    60.1    12.1   -74.6   -92.4   -32.4    58.0
    84.2     8.3   -39.2    -8.8    37.9    40.0     5.8    -8.3    -3.6     4.7
     6.4     9.9    10.3     2.7     1.0     4.4   -18.8   -18.1    -1.9    45.7
    35.8   -15.1   -39.5    -8.8     1.4    21.6    -0.9    -9.1   -27.9   -39.4
   -31.5     2.3     0.9   -27.2   -23.7    24.4    49.1    13.5   -29.7   -40.8
   -30.9   -10.7     1.8    11.3    18.7    25.7    42.2    41.7    13.9    -1.7
    14.4    11.3    -7.1   -26.9   -10.2    17.4    19.3    18.2     7.8    -0.7
   -16.4   -37.0   -32.0     8.3    46.8    30.4     7.1   -25.8   -39.4   -32.8
    -2.4    38.1    -2.4   -45.6   -52.9   -22.5    -3.4     7.6    21.0    -1.2
   -37.4   -31.7    29.1    68.5    34.3   -68.3   -99.2   -60.3    59.1   152.9
   154.5    92.0   -44.3  -135.8  -100.2   -16.3    71.1   103.6    13.4   -41.8
    16.3    58.0    38.6   -72.0  -144.1   -71.5    64.3   132.5    63.2   -94.2
  -159.9   -79.5    36.0    94.2    81.2    -9.9   -47.2   -48.0   -20.0    50.0
    55.4    29.8   -40.9  -104.8   -69.7    39.2   108.8    84.2    -1.0   -61.8
   -58.1   -25.2    22.6    74.7    62.1    -7.8   -46.7   -25.3    17.0    27.3
   -21.7   -60.2   -20.2    44.1    86.5    54.5    -0.3   -38.3   -65.6   -44.6
    -2.5    13.8    28.8    30.5     0.9    -5.9   -29.2   -39.6   -32.2   -11.2
     7.2    39.2    57.6    17.6   -15.2   -20.6   -13.9    -3.3     1.2    -8.3
   -16.6    22.0    40.3    -5.1   -49.7   -35.6    18.9    75.5    85.3    58.3
   -33.3  -102.3   -71.3   -38.3   -24.4    23.2    37.8    22.4    -8.6   -37.1
    -0.9    24.0    19.1    13.2     2.3    15.9    35.5     2.9   -45.9   -59.0
   -33.9    23.0    57.3    61.0    15.3   -25.2   -24.7   -12.0   -23.2    -3.6
    39.1    25.1    -7.1   -37.8   -33.1    -4.3    11.3     2.4    -1.9     5.9
    -6.4     2.3    15.3    -0.8   -27.8   -58.2   -44.2    13.7    51.6    58.7
    32.5    -5.8   -27.2   -11.3    22.7    30.2   -13.8   -25.4     6.4    38.2
    23.7   -27.9   -38.5   -16.8    15.6    30.4    20.4   -10.1   -19.6   -19.9
   -35.8   -39.7   -32.5    -4.9    34.7    49.8    17.9   -28.1   -32.3   -10.3
    22.6    30.8    21.1    19.0    17.7     8.2    -2.6    -3.7    18.1    17.3
     9.1     9.2    -3.2    -3.9   -15.9   -37.1   -37.7   -21.2    10.2    18.2
    21.4    22.7    -0.3   -44.7   -53.8   -21.1     7.4    10.1     8.9    10.6
     7.9    17.2    13.5     8.6     5.9   -13.7   -20.9     6.4    49.9    34.1
     5.5   -19.7   -22.5    -1.0    -0.6     1.8    10.0    10.2     3.4   -13.7
   -15.7   -16.2   -14.7    -0.4    28.1    22.2     1.4   -15.8   -24.4   -18.6
    -2.3     0.5     0.6    -5.0   -16.5   -20.0   -12.3     8.8    26.2    25.5
     5.0     0.0    -0.9    -5.5    13.4     9.8    10.4     8.6    -0.7   -15.9
   -37.1   -27.2    13.1    36.1    45.3    43.8    13.1   -23.4   -46.7   -41.2
   -14.2    26.5    39.0    21.5     1.3   -27.8   -39.3   -31.2   -10.0     1.7
    -2.0    -4.4     8.6    22.4    23.0     0.1   -26.3   -24.2    -4.9    19.2
    29.4    11.5    -6.4   -10.4    -3.6    -9.7    -7.8     1.4    16.2    21.1
    12.2    -3.0    -7.3     0.1     5.5    17.4    15.1     0.6    -9.1   -15.1
   -19.9    -0.9    16.4    20.3     0.7    -8.8     1.3     3.8     2.4    -7.0
    -9.4    -9.7    -8.6   -11.1   -19.1   -18.8    -1.8    -0.9   -10.0    -8.9
     8.2    20.7    17.8     4.1    -6.6   -10.8    -2.8     0.7     0.7    11.4
     3.5    -6.3   -14.8   -10.0    14.0    32.2    20.5     2.3   -12.4    -1.3
    -4.9    -0.3     1.7    22.7    26.9    14.1   -16.0   -29.4   -29.0   -22.7
   -17.7    -3.1    18.4    30.4    21.1     7.0    -0.6   -11.1    -7.3    -0.1
     0.2    -0.4     0.1   -17.3   -18.2    -8.2     1.8     8.8    -1.0    18.2
    30.2    21.6     1.3   -16.5   -19.7    -1.5    15.3     8.9    -6.9   -10.3
    -9.2   -10.5    -4.2     7.2     9.6    10.1     2.9   -13.3    -0.3     9.4
    10.8    -2.1   -18.3   -14.0    -2.1    -0.9     6.5     5.0    -4.0    -3.9
   -10.4    -8.3     1.0    15.1    26.2    23.7    -6.2   -21.7   -11.3     1.4
    -1.6     1.9     9.5     9.4     9.7     4.4    -8.3   -26.2   -29.4   -11.2
     6.4    11.0     2.8    -1.8   -10.4    -8.8     6.7    26.8    28.8    22.8
    -0.1   -15.0   -22.6    -9.8    -1.0     6.5     9.5    10.1     7.3     0.9
    -7.9   -20.7   -19.2   -13.9    13.9    20.7    12.0     8.9    -8.3   -20.5
   -19.0   -14.7    -1.3    11.9    17.7     9.0     4.9    -8.3    -8.6     1.2
    14.9    26.2    24.4     5.1   -19.1   -29.9   -23.2   -12.8    -3.7     1.6
    -2.6     8.5    19.4    19.5    12.4    -8.0   -10.0    -8.6     0.6    -1.0
     1.9    21.8    10.1    -1.1   -16.9   -18.4    -9.4    -4.9     7.1    10.5
     3.0    -1.0     0.2    -0.2    -1.0     6.3     5.4    -9.3   -20.7   -12.9
    -8.9   -10.3   -10.0    -4.0    18.9    29.2    22.4    -0.2   -10.1    -9.1
     2.4     8.1    -0.9     0.2    -0.4    -0.1    -0.4    -0.1    -0.3    -0.1
    -0.3    -0.3     0.7     6.8     0.7     6.4     8.9    -1.2     0.1     0.9
     5.5    -9.6   -20.2   -18.1    -8.4     1.5     9.3    13.9     9.8     9.5
     4.4    -8.2   -26.5   -28.9   -12.5    13.6    32.3    18.5    -7.2   -11.1
    -3.7     6.0    11.3     2.1    -0.3    -1.0     5.9    10.5     8.3    10.7
     2.9    -2.1   -10.6    -8.3     0.3    -0.7     0.0    -0.5    -0.2    -0.3
    -0.6     4.5     0.3    -0.8     0.1   -18.4   -30.0   -27.9   -12.9     8.8
    19.4    18.5    18.5     2.9    -6.6   -11.4    -3.7     6.1    11.1     2.4
    -0.8    -0.1    -0.3    -0.5     0.8    10.3     8.5    10.2     7.6    -0.6
    -0.2    -0.2    -0.5     0.1    -0.9     1.0    -7.0   -10.3   -10.3    -4.0
     1.0    -1.3     0.5    -0.9    -0.4   -12.7   -18.8   -20.7   -13.3    -4.0
     6.8     9.7     9.0     9.5     9.0    10.1     3.2    -1.7     1.4    10.9
    14.7     0.7     0.8    -2.2     7.0     9.0    10.4     2.5    -0.8    -0.5
     0.5    -6.6   -11.1    -8.4     0.4    -1.3     1.2    -7.5    -9.2     0.5
    -0.7    -1.2   -11.2    -8.9   -11.3    -3.5     0.7    -1.6     1.9     7.8
     3.2     5.7    16.2    18.6     2.6    -6.8   -11.5    -3.8     1.8     8.9
    10.1     2.6    -1.1    -0.4     0.4    -7.0    -9.8     0.6     3.2     0.9
    -2.3   -11.0    -3.8     0.0     4.6     7.3     0.5     0.5    -1.9     1.1
    -3.0     7.8     2.7    -1.2    -0.3    -0.8     3.8     1.1    -7.7    -6.3
    -3.8     0.8    -2.1     1.5    -8.3    -8.8    -0.5     0.6     9.5     8.3
    -3.7    -3.7    -0.1    -0.4    -1.8     6.6     3.6    -2.2     0.4    -1.3
    -0.3     0.0    10.6     3.4     8.2    -1.9     0.5    -1.7     0.6    -3.2
    -4.7     2.1     7.9    -2.4   -10.9    -8.7    -0.2    -0.9    -0.6    -0.5
    -1.0     0.2    -3.0    -4.4     0.2     4.0    11.9     1.0    -0.2    -1.5
     1.1     9.3     8.7     9.6     3.2    -2.4     1.2    -3.5    -8.4    -0.7
     0.1    -2.3     7.1     3.2    -1.6    -0.9   -11.8    -8.8   -11.9    -3.3
    -0.1    -0.9    -0.4    -0.6    -0.7     0.4    10.2     7.8    10.7     2.0
    -0.8    -0.7     0.0    -2.4    -9.3     0.3    -0.2    10.7     6.8    -0.6
    -0.3    -4.8    -2.8    -4.9     2.9     2.9    -2.4   -11.0    -3.9     0.9
    -1.8     1.8     8.2    -2.0   -11.4    -3.2    -0.3     4.9    11.4     6.2
     1.0    -7.4    -9.3     0.5    -0.2    11.4     2.0    -0.7    -0.2    -0.4
    -0.3    -0.4    -0.4    -0.3    -0.4    -0.3    -0.4    -0.2    -0.1    -0.1
    -0.1    -0.1    -0.1    -0.1    -0.1    -0.1    -0.1    -0.1    -0.1    -0.1
     0.0    -0.1     0.0    -0.1     0.0    -0.1     0.0    -0.1     0.0    -0.1
     0.0     0.0     0.0     0.0     0.0     0.0     0.0     0.0     0.0     0.0
     0.0     0.0     0.0     0.0     0.0     0.0     0.0     0.0     0.0     0.0
     0.0     0.0     0.0     0.0     0.0     0.0     0.0     0.0     0.0     0.0
     0.0     0.0     0.0     0.0     0.0     0.0     0.0     0.0     0.1     0.0
     0.1     0.0     0.1     0.0     0.0     0.0     0.0     0.0     0.0     0.0
     0.0     0.0     0.0     0.0     0.0     0.0     0.0     0.0     0.0     0.0
     0.0     0.0     0.0     0.0     0.0     0.0     0.0     0.0     0.0     0.0
     0.0     0.0     0.0     0.0     0.0     0.0     0.0     0.0     0.0     0.0
     0.0     0.0     0.0     0.0     0.0     0.0     0.0     0.0     0.0     0.0
     0.0     0.0     0.0     0.0     0.0     0.0     0.0     0.0     0.0     0.0
     0.0     0.0     0.0     0.0     0.0     0.0     0.0     0.0     0.0     0.0
     0.0     0.0     0.0     0.0     0.0     0.0     0.0     0.0     0.0     0.0
     0.0     0.0     0.0     0.0     0.0     0.0     0.0     0.0     0.0     0.0
     0.0     0.0     0.0     0.0     0.0     0.0     0.0     0.0     0.0     0.0
     0.0     0.0     0.0     0.0     0.0     0.0     0.0     0.0     0.0     0.0
     0.0     0.0     0.0     0.0     0.0     0.0     0.0     0.0     0.0     0.0
     0.0     0.0     0.0     0.0     0.0     0.0     0.0     0.0     0.0     0.0
     0.0     0.0     0.0     0.0     0.0     0.0     0.0     0.0     0.0     0.0
     0.0     0.0     0.0     0.0     0.0     0.0     0.0     0.0     0.0     0.0
     0.0     0.0     0.0     0.0     0.0     0.0     0.0     0.0     0.0     0.0
     0.0     0.0     0.0     0.0     0.0     0.0     0.0     0.0     0.0     0.0
     0.0     0.0     0.0     0.0     0.0     0.0     0.0     0.0     0.0     0.0
     0.0     0.0     0.0     0.0     0.0     0.0     0.0     0.0     0.0
    0.00    0.00    0.00    0.00    0.00    0.00    0.00    0.00    0.00    0.00
    0.00    0.00    0.00   -0.01   -0.01   -0.01   -0.01   -0.01   -0.01   -0.01
   -0.01   -0.01   -0.01   -0.01   -0.01   -0.01   -0.01   -0.01   -0.01   -0.01
   -0.01   -0.01   -0.01   -0.01   -0.01   -0.02   -0.02   -0.02   -0.02   -0.02
   -0.02   -0.02   -0.02   -0.02   -0.02   -0.02   -0.02   -0.02   -0.02   -0.02
   -0.02   -0.02   -0.02   -0.02   -0.02   -0.02   -0.02   -0.02   -0.02   -0.02
   -0.02   -0.02   -0.02   -0.02   -0.02   -0.02   -0.02   -0.02   -0.02   -0.02
   -0.02   -0.02   -0.02   -0.02   -0.02   -0.02   -0.02   -0.02   -0.02   -0.02
   -0.01   -0.01   -0.01   -0.01   -0.01   -0.01   -0.01   -0.01   -0.01   -0.01
   -0.01   -0.01   -0.01   -0.01   -0.01    0.00    0.00    0.00    0.00    0.00
    0.00    0.00    0.00    0.00    0.00    0.00    0.01    0.01    0.01    0.01
    0.01    0.01    0.01    0.01    0.01    0.02    0.02    0.02    0.02    0.02
    0.02    0.02    0.02    0.02    0.02    0.03    0.03    0.03    0.03    0.03
    0.03    0.03    0.03    0.03    0.03    0.04    0.04    0.04    0.04    0.04
    0.04    0.04    0.04    0.04    0.04    0.04    0.04    0.04    0.04    0.04
    0.04    0.04    0.04    0.04    0.05    0.05    0.05    0.05    0.05    0.04
    0.04    0.04    0.04    0.04    0.04    0.04    0.04    0.04    0.04    0.04
    0.04    0.04    0.04    0.04    0.04    0.03    0.03    0.03    0.03    0.03
    0.03    0.03    0.02    0.02    0.02    0.02    0.02    0.01    0.01    0.01
    0.01    0.00    0.00    0.00    0.00   -0.01   -0.01   -0.01   -0.01   -0.02
   -0.02   -0.02   -0.03   -0.03   -0.03   -0.04   -0.04   -0.04   -0.05   -0.05
   -0.05   -0.06   -0.06   -0.07   -0.07   -0.08   -0.08   -0.08   -0.09   -0.09
   -0.10   -0.10   -0.11   -0.11   -0.11   -0.12   -0.12   -0.13   -0.13   -0.14
   -0.14   -0.15   -0.15   -0.16   -0.16   -0.17   -0.17   -0.18   -0.18   -0.19
   -0.19   -0.20   -0.20   -0.21   -0.21   -0.22   -0.23   -0.23   -0.24   -0.24
   -0.25   -0.26   -0.27   -0.26   -0.03    0.23    0.24    0.14    0.20    0.24
    0.23    0.30    0.23    0.17   -0.03   -0.13    0.02    0.07   -0.02   -0.06
    0.09    0.49    0.69    0.68    0.65    0.43    0.28    0.32    0.70    0.64
    0.43    0.39    0.22    0.21    0.32    0.52    0.67    0.54    0.34    0.03
   -0.37   -0.31   -0.14   -0.17   -0.03    0.00   -0.21   -0.40   -0.49   -0.50
   -0.73   -0.73   -0.25    0.09    0.26    0.09   -0.28   -0.35   -0.23   -0.05
   -0.09    0.05    0.23    0.43    0.49    0.49    0.34   -0.12   -0.51   -0.36
   -0.22   -0.18   -0.02   -0.16   -0.25   -0.18   -0.15   -0.08    0.27    0.31
   -0.05   -0.50   -0.39   -0.03   -0.09   -0.20   -0.04    0.10    0.14    0.33
    0.41    0.33   -0.03    0.04    0.48    0.53    0.01   -0.43   -0.44   -0.27
   -0.03    0.23    0.38    0.26    0.09    0.10    0.06   -0.13   -0.31   -0.63
   -0.89   -0.71   -0.25    0.04    0.09    0.02   -0.04   -0.13   -0.22   -0.14
   -0.04   -0.10   -0.09   -0.09   -0.09   -0.09   -0.09    0.11    0.34    0.40
    0.40    0.37    0.06   -0.23   -0.20    0.15    0.22    0.21    0.22    0.10
    0.00    0.17    0.23    0.23    0.23    0.24    0.20    0.01   -0.09   -0.18
