Corrected accelerogram D9644D08     Institute of Geological & Nuclear Sciences  
Site 644D     041 13 10S  174 52 55E                      DCA file .. WN369039  
Petone Wellington Newspapers D (ground floor)                                   
Instrument DCA_436     Model 333R, Case 466, Ramdeck 236, Board 436, Torquer 484
Resolution 12 bit, Frequency 30Hz, Damping 70%, Trigger 0.3% of 2g.             
Accelerogram D9644D08                                Processed 2004 September 07
33 km NW Wellington                                                             
1999 January 03     0700 UT                                                     
Epicentre  41 05 24S 174 30 36E  Bearing N65W  Dist   34km  Depth  57 km Mw 5.20
Number of points  2383    Duration  47.64 sec                                   
Instrument corrected data at 0.020 sec intervals                                
Band-pass filter transition bands are  0.18- 0.33 Hz and 24.50-25.50 Hz         
Component N65W  Longitudinal Accelerometer Axis                                 
Acceleration:  peak    315.0 mm/s/s at  12.24 sec     rms     36.9 mm/s/s       
Velocity:      peak    22.22 mm/s   at  12.34 sec     rms     3.50 mm/s         
Displacement:  peak   -2.781 mm     at  12.24 sec     rms    0.389 mm           
    1999       1       3       7       0     215       0       0       0       0
      41       5      24     174      30      36      57       0       0       0
      41      13      10     174      52      55     295     295     295      34
    3764     250     250    2383    2383    2383       0       0       0       0
    30.0    0.75    0.00   0.000  0.0000   0.000   0.000   1.000     0.0    0.00
  41.219 174.882   41.09  174.51    5.50    0.00    5.20      0.      0.      0.
   37.63    5.00    5.00   47.64  0.0100  0.0200      0.      0.      0.  9807.0
   317.9   12.25    41.5   0.000      0.   315.0   12.24    36.9   422.4   1.788
   22.22   12.34    3.50   27.44   1.782   -2.78   12.24    0.39    3.53   1.074
   0.180   0.150   0.330      0.      0.  24.500   1.000  25.500      0.      0.
     0.0     0.0     0.0     0.0     0.0     0.0     0.0     0.0     0.0     0.0
     0.0     0.0     0.0     0.0     0.0     0.0     0.0     0.0     0.0     0.0
     0.0     0.0     0.0     0.0     0.0     0.0    -0.1     0.0    -0.1     0.0
    -0.1     0.0    -0.1     0.0    -0.1     0.0    -0.1    -0.1    -0.1    -0.1
    -0.1    -0.1    -0.1    -0.1    -0.1    -0.1    -0.1    -0.1    -0.1    -0.1
    -0.1    -0.1    -0.1    -0.1    -0.1    -0.1    -0.1    -0.1    -0.1    -0.1
    -0.1    -0.1    -0.1    -0.1    -0.1    -0.1    -0.1    -0.1    -0.1    -0.1
    -0.1    -0.1    -0.1    -0.1    -0.1    -0.1    -0.1    -0.1    -0.1     0.0
    -0.1     0.0    -0.1     0.0    -0.1     0.0    -0.1     0.0     0.0     0.0
     0.0     0.0     0.0     0.0     0.0     0.0     0.0     0.0     0.0     0.0
     0.0     0.0     0.0     0.0     0.0     0.0     0.0     0.0     0.0     0.0
     0.0     0.0     0.0     0.1     0.0     0.1     0.0     0.1     0.1     0.1
     0.1     0.1     0.1     0.1     0.1     0.1     0.1     0.1     0.1     0.1
     0.1     0.1     0.1     0.1     0.1     0.1     0.1     0.1     0.1     0.2
     0.1     0.2     0.1     0.2     0.1     0.2     0.2     0.2     0.2     0.2
     0.2     0.2     0.2     0.2     0.2     0.2     0.2     0.2     0.2     0.2
     0.2     0.2     0.2     0.2     0.2     0.2     0.2     0.2     0.2     0.2
     0.1     0.2     0.1     0.2     0.1     0.1     0.1     0.1     0.1     0.1
     0.1     0.1     0.1     0.1     0.1     0.1     0.1     0.1     0.0     0.1
     0.0     0.0     0.0     0.0     0.0     0.0     0.0     0.0    -0.1     0.0
    -0.1    -0.1    -0.1    -0.1    -0.1    -0.1    -0.2    -0.1    -0.2    -0.2
    -0.2    -0.2    -0.3    -0.2    -0.3    -0.3    -0.3    -0.3    -0.4    -0.3
    -0.4    -0.4    -0.4    -0.4    -0.5    -0.5    -0.5    -0.5    -0.5    -0.5
    -0.6    -0.6    -0.6    -0.6    -0.7    -0.6    -0.7    -0.7    -0.8    -0.7
    -0.8    -0.8    -0.9    -0.8    -0.9    -0.8    -1.0    -0.9    -1.1    -0.7
     1.0     0.8     0.9     0.8     0.8     0.8     0.8     0.7     0.7     0.7
     0.7     0.7     0.6     0.6     0.6     0.6     0.5     0.5     0.5     0.5
     0.5     0.5     0.4     0.4     0.4     0.4     0.3     0.4     0.3     0.3
     0.3     0.3     0.2     0.2     0.2     0.2     0.2     0.2     0.1     0.2
     0.1     0.1     0.1     0.1     0.0     0.1     0.0     0.0     0.0     0.0
     0.0     0.0    -0.1     0.0    -0.1     0.0    -0.1     0.0    -0.1    -0.1
    -0.1    -0.1    -0.1    -0.1    -0.1    -0.1    -0.1    -0.1    -0.1    -0.1
    -0.1    -0.1    -0.1    -0.1    -0.1    -0.1    -0.1    -0.1    -0.1    -0.1
    -0.1    -0.1    -0.1    -0.1     0.0    -0.1     0.0     0.0     0.0     0.0
     0.0     0.0     0.1     0.0     0.1     0.0     0.2     0.0     0.2     0.0
     0.3     0.0     0.4    -0.1     0.5    -0.2     0.8    -0.6     2.2   -14.9
    -0.3     0.6     0.1     0.6     0.2     0.6     0.3     0.6     0.4     0.6
     0.5     0.6     0.6     0.6     0.6     0.6     0.7     0.7     0.8     0.7
     0.9     0.7     1.0     0.7     1.1     0.7     1.2     0.7     1.3     0.7
     1.4     0.6     1.6     0.5     1.9     0.2     2.5    -0.6     4.3    -6.1
   -10.1     5.5    -1.5     3.8    -0.9     4.6   -14.8     1.8     1.0     2.0
     1.1     2.0     1.4    -2.2    -4.4     2.5    -0.2    -8.0    -8.0    -7.5
    -8.4    -7.0    -9.1    -4.8    -5.0    -2.7     3.5     4.9     5.1    10.1
    17.9     9.3    24.9    27.4    12.2    14.1    15.7     9.1     2.4     1.3
   -13.6   -19.5   -25.6   -33.1   -36.3   -41.0   -35.6   -42.6   -40.8   -16.8
   -18.9   -10.1    -1.2    21.3    36.0    48.3    54.4    69.3    61.0    67.7
    74.4    49.3    41.1    35.9    17.8    -7.7   -16.2   -23.1   -44.5   -62.4
   -76.9   -70.5   -71.6   -74.8   -69.7   -55.3   -45.7   -22.4     0.9     2.7
    18.8    40.2    50.0    56.5    77.4    79.1    73.8    61.6    42.5    23.5
     3.2   -25.2   -26.1   -44.6   -56.1   -54.5   -55.5   -55.3   -49.9   -43.1
   -31.9   -17.3    -2.9    12.5    31.9    48.4    60.2    64.8    71.2    62.8
    52.8    32.0    15.0     5.1   -16.8   -27.1   -44.5   -55.9   -60.5   -66.9
   -63.5   -66.1   -46.5   -31.1   -18.2    -6.3     8.7    29.5    46.5    55.9
    65.8    71.0    77.9    66.7    58.9    42.6    22.5     4.4   -16.4   -28.2
   -42.4   -52.2   -62.3   -66.0   -64.8   -64.8   -53.2   -45.7   -33.6   -10.7
    10.7    25.8    43.6    55.8    67.1    79.7    77.3    61.3    47.3    34.3
    11.5    -3.3   -16.4   -28.7   -37.9   -47.7   -56.3   -55.1   -56.1   -55.6
   -51.1   -37.8   -20.3     1.0    16.6    29.2    41.8    50.3    48.5    51.4
    42.2    40.8    32.8    18.1    11.2    -5.7   -24.9   -27.7   -38.7   -28.9
   -28.0   -19.9   -21.9   -16.7    -7.2    -3.4     9.7    11.2    11.6    11.1
    11.9     6.0    -1.9    -0.6    -3.6    -9.4    -6.7    -8.5    -7.9   -19.6
    -9.9    -7.7    -7.0     4.1    10.9    17.4    22.4    19.9    22.1    20.0
    22.5    18.6    12.7     4.6     2.3    -5.0   -19.5   -15.2   -19.7   -26.6
   -22.9   -24.1   -18.2   -10.7    -6.4     4.2    10.8    17.8    22.2    20.5
    21.9    19.7    11.4     6.8    -1.5    -5.6   -15.2   -15.8   -24.2   -25.8
   -33.8   -30.7   -25.5   -26.5   -11.0     0.7    12.1    18.1    33.1    34.0
    49.7    47.9    39.8    28.6    20.8     9.6     1.4    -9.1   -22.5   -28.5
   -24.2   -34.1   -36.0   -35.9   -23.5   -18.2   -10.6    -1.7     9.2    16.9
    29.4    29.8    37.1    28.8    22.6    13.7     1.1     1.8    -8.1   -12.1
   -19.3   -14.2   -24.7   -25.8   -28.0   -19.3   -17.3   -10.7    -6.4    -7.7
    -7.7    -1.5     3.6     2.0    15.0    20.6    22.5    19.5    11.8    11.8
    12.0    12.4    23.4    14.8     6.0     0.4     4.1   -14.9   -24.0   -14.5
   -18.2   -15.8   -17.9   -10.9    -4.5    -2.9     3.3    12.6    12.2    23.3
    19.4    28.9    30.0    21.1    16.9     4.1     2.1   -14.3   -17.8   -28.5
   -35.9   -36.2   -35.5   -37.0   -29.7   -24.6   -15.3    -6.2     8.4    18.1
    28.5    48.6    49.8    51.4    43.0    28.2    21.2     9.8    -2.4   -15.6
   -32.2   -42.9   -46.6   -56.6   -48.6   -39.8   -29.0   -21.1    -8.3     4.2
    13.2    27.1    38.0    45.9    58.3    58.5    49.6    33.8    30.4    15.0
     6.7    -6.0   -18.4   -28.0   -35.8   -37.0   -46.2   -44.9   -46.2   -39.8
   -33.2   -26.5    -8.2     4.1    13.3    27.2    34.1    39.5    43.3    48.7
    40.1    28.6    35.6    16.7    -6.9     6.5    -4.9   -13.5   -16.8   -23.1
   -39.3   -45.0   -45.3   -47.1   -32.5    -8.6    -1.0    15.1    27.1    45.0
    53.1    70.5    77.7    81.2    70.9    52.9    15.2    13.9     2.8    -1.5
    -2.2   -26.5   -24.1   -33.9   -35.3   -42.1   -46.8   -44.4   -47.9   -49.9
   -42.9   -54.2   -65.4   -64.9   -59.0   -53.8   -74.0   -84.5   -83.7   -84.4
  -101.1  -115.0   -87.6   -50.6    -4.7    36.9    75.7   105.9   130.7   166.8
   195.0   249.5   315.0   300.5   259.7   172.7    75.4    18.1   -34.9   -63.5
   -94.0  -121.1  -151.4  -178.8  -207.6  -207.7  -209.3  -190.2  -157.0  -109.6
   -69.3   -46.9   -13.0    33.3    76.0   106.3   140.9   157.1   140.4   140.3
   136.8   126.5   119.8    99.3    79.1    33.9    -3.2   -25.4   -43.8   -63.9
   -76.8   -89.2  -102.4  -118.9  -130.4  -127.2  -115.3   -95.4   -77.8   -51.7
   -22.6     1.9    10.6    18.1    38.0    62.4    92.9   116.4   121.5   113.1
   108.3    82.7    48.6    23.4     3.2   -14.8   -35.8   -47.8   -56.6   -54.1
   -62.6   -65.9   -82.0   -66.1   -43.3   -31.2    -8.3    -9.1    11.2    20.7
    22.5    30.2    36.2    42.1    50.7    42.8    23.3    14.5    -2.1    -6.1
   -10.5   -16.0   -24.1   -27.6   -43.9   -62.2   -49.9   -38.7   -18.7    -5.3
     2.2    14.2    20.6    39.5    50.5    66.9    85.5   107.3   111.5   105.2
    92.1    64.2    41.3    24.6    -2.8   -25.2   -43.8   -62.7   -83.0   -95.4
  -104.0  -101.8  -106.3  -105.8  -108.5  -114.2  -112.4  -107.3   -83.5   -56.6
   -26.3     1.1    30.4    46.3    74.4    96.1   120.1   152.1   189.0   212.0
   210.6   187.1   142.5    90.8    54.7    20.8    -9.9   -41.6   -63.5   -92.7
  -109.2  -131.3  -142.3  -152.8  -160.3  -160.2  -160.7  -154.5  -131.0  -104.9
   -67.9   -31.9    -1.1    31.5    58.8    92.6   122.6   143.7   152.5   173.7
   174.3   175.4   156.6   123.6    91.9    60.5    27.2     2.5   -24.3   -47.5
   -78.8  -109.1  -115.8  -130.3  -131.2  -127.0  -113.4   -95.9   -74.9   -58.7
   -47.7   -23.6    -7.0    19.8    39.7    69.3    79.6    79.3    73.7    67.1
    55.6    41.5    26.1    13.1     1.3    -9.5   -15.2   -24.6   -32.7   -33.3
   -26.0   -26.8   -20.4   -14.3    -6.4     4.7    12.0    12.2    11.8    12.4
    11.6    13.0     6.0     0.2    -7.1    -8.0   -18.7   -26.8   -25.0   -15.8
   -17.7   -15.1    -6.3     8.3    19.3    34.3    39.3    43.2    44.9    51.0
    43.7    40.3    35.4    28.0    22.3    16.0     3.9    -9.9   -17.1   -33.2
   -41.8   -52.7   -56.6   -65.9   -63.1   -54.3   -43.6   -36.7   -30.6   -20.0
   -11.0    -1.3     8.7    13.3    22.7    31.5    29.7    36.8    42.4    32.9
    31.4    23.6     9.8     8.4    -8.1   -16.4   -22.9   -33.4   -37.5   -34.7
   -21.6    -8.7     3.8    12.7    26.8    37.3    45.9    56.7    65.2    71.1
    65.7    61.4    50.9    39.4    22.6    10.2    -5.2   -23.9   -34.0   -52.7
   -62.8   -76.8   -73.0   -76.6   -67.9   -63.8   -53.9   -44.8   -34.8   -25.5
   -15.7    -6.4     3.4    12.8    22.7    31.1    30.0    31.2    29.2    19.8
     9.5     2.0     0.7    -8.4    -7.3    -7.8    -8.0    -6.4     2.2     6.6
    19.1    21.9    32.7    40.9    52.1    59.1    59.9    58.0    48.9    33.8
    28.9    20.1     5.6    -4.5   -13.6   -23.6   -32.8   -38.9   -45.0   -52.3
   -56.2   -55.1   -55.4   -56.1   -49.5   -44.0   -34.9   -26.6   -21.7   -13.9
    -8.9    -1.3     4.0    11.5    16.9    24.0    30.8    43.4    48.6    52.8
    53.1    49.7    44.9    33.1    29.5    19.7    10.3     0.7    -9.2   -17.5
   -16.2   -22.8   -28.7   -23.2   -23.9   -25.8   -16.7   -11.6    -5.8    -8.9
    -5.4     2.5     1.0    -8.4    -6.6    -8.1    -6.8    -8.0    -6.8    -8.1
    -6.7    -8.3    -6.1   -10.0   -11.0    -6.1    -8.5    -5.5     2.4     2.3
     1.6     8.2    13.3    10.5    14.0    21.4    21.7    21.1    22.1    20.0
    11.2    12.9     5.8     0.9     3.7     0.4     9.5    12.0    12.2    11.4
    12.8    10.7    14.5    19.9    12.1    10.2     3.0    -4.2    -7.1   -13.3
   -17.1   -22.2   -27.6   -30.3   -44.3   -45.0   -45.9   -45.6   -40.3   -33.0
   -26.4    -9.6    -2.0     9.7    17.0    29.4    30.7    31.8    30.3    32.2
    29.8    33.2    23.6    22.3    19.5    13.0     5.2     2.8    -3.7    -7.9
    -7.2    -5.4    -2.8    -9.0    -5.7    -8.7    -1.3    -7.5    -6.7    -7.5
    -6.8    -7.4    -6.9    -7.4    -6.9    -7.3    -7.0    -7.2    -7.1    -7.1
    -7.4    -6.0     3.3     1.8     3.1     1.8     3.2     1.2     9.1    12.8
    11.5    12.5    11.6    12.6    10.7     1.6     4.0    12.7    11.5    12.5
    11.9     7.8    -7.0   -16.2   -22.8   -27.1   -26.0   -25.7   -35.7   -27.8
   -19.8   -15.5   -18.3    -9.6    -7.5    -1.2     4.0    18.4    22.4    22.2
    31.6    19.2    24.2    14.1    11.4    -0.2    -6.6    -8.1    -5.6   -14.2
   -16.7   -21.3   -17.6   -10.9    -4.6     1.7     8.1    18.7    23.4    31.3
    30.9    31.1    31.1    31.1    30.4    19.4    11.4    -0.3    -6.1   -13.9
   -16.7   -22.4   -28.0   -24.9   -28.2   -19.2   -17.0   -11.4    -4.5     1.3
     8.6    12.8    11.2    12.4    11.6    11.5    -0.4    -6.4   -13.4   -18.9
   -26.7   -26.3   -25.7   -15.4   -18.7   -10.1    -2.2    10.3    10.6    18.9
    20.8    27.9    30.8    37.3    36.1    27.7    21.4     9.0     2.3   -14.7
   -17.8   -28.7   -36.1   -36.2   -36.1   -36.1   -36.5   -34.7   -26.7   -20.3
    -3.5     0.3     8.7    17.3    28.4    32.1    41.2    40.5    51.9    48.0
    52.5    42.0    41.5    33.9    25.5    12.8     0.5    -9.3   -17.5   -33.7
   -37.1   -48.5   -54.2   -62.1   -65.2   -65.6   -59.2   -49.3   -39.0   -35.4
   -20.2   -11.8     0.8    13.2    23.2    30.0    37.1    40.8    41.2    50.6
    49.8    48.6    40.3    34.5    29.7    26.4    13.4     6.8    -6.0    -7.1
    -9.2   -17.6   -16.8   -17.4   -16.9   -17.6   -16.5   -18.5   -10.4    -7.7
    -2.0     3.5     0.5     3.6    -4.9    -8.4    -7.1    -8.4    -6.5   -14.2
   -17.8   -17.0   -17.0   -18.1   -10.9    -7.1    -7.0     2.6     6.5    15.1
    19.4    28.0    31.0    30.4    30.7    30.3    31.3    24.8    18.8    11.4
    11.8    10.2     1.6    -3.0   -11.0   -16.0   -19.5   -26.1   -33.0   -37.7
   -34.5   -27.0   -21.5   -14.2    -8.9    -1.2     2.8     0.8     8.0    13.1
     9.4    19.2    16.3    21.1    19.9    10.9    11.0     0.4     3.7    -4.9
    -8.5    -6.6   -13.9   -18.4   -16.2   -18.4   -15.2   -31.7    -7.1    -8.7
    -5.8     1.9     3.0    12.2    11.0    11.8    11.4    11.6    11.6    11.3
    11.9    10.2     1.3     2.4     1.7     2.1     1.8     1.9     2.0     1.8
     2.2     1.4     3.5    11.8    12.0     5.6     0.6     3.0     1.0     3.0
     0.1    -7.9    -7.6    -7.6    -7.8    -7.5    -7.8    -7.4    -7.9    -7.2
    -8.6    -1.4     3.1     0.8     3.5    -4.8    -8.2    -7.4    -7.7    -7.7
    -7.5    -8.1    -6.3     2.6     1.5     2.2     1.9     1.9     2.2     1.1
     8.2    12.7    10.7    12.3    10.9    12.3    10.8    12.9     5.1     0.8
     7.3     2.1     1.9     2.1     1.9     2.1     1.8     2.3    -2.3    -4.3
    -9.0    -6.0   -14.6   -13.7   -10.3    -7.0    -8.0    -7.7    -3.2    -6.7
    -8.8    -5.3    -2.4    -3.1     1.3     2.8     0.4     9.1    10.8     1.2
     2.1     6.5     2.6     1.6     2.3     1.7     2.1     1.9     1.9     2.2
     1.3     4.0     6.2     0.1     3.4     0.5     3.8    -5.2    -7.9    -7.7
    -7.5    -8.0    -7.3    -8.1    -7.1    -8.5    -5.9     2.1     2.1     1.0
     8.2    12.6    10.5    12.9     5.0     1.0     2.6     1.3     2.6     1.1
     3.3    -4.8    -8.3    -7.4    -8.0    -3.6    -1.1     2.7     1.4     2.3
     1.6     2.2     1.6     2.2     1.4     2.8    -4.3    -9.0    -6.5    -9.4
    -0.7     2.0     2.9    12.4    10.7    12.2    10.0     1.1     2.6     0.3
    -8.2    -7.5    -7.9    -7.8    -7.6    -8.2    -6.3     2.2     2.5    12.6
    10.5    12.2    10.7    12.2    10.5    12.6     9.3     2.2     0.4    -8.1
    -7.8    -7.3    -9.3   -17.6   -17.5   -15.7   -11.9    -8.9    -6.2     2.6
     0.6     8.3    12.2    10.9    11.7    11.3    11.2    12.3     5.0     1.2
     0.9    -4.4    -6.1    -9.3    -6.2   -10.3   -16.7   -18.2   -15.3    -7.9
    -7.3    -8.7    -5.5    -3.0     1.5     1.8     2.0     1.4     3.1    12.3
    10.2    17.9    18.1    13.5    11.5    10.9    12.6     4.8     1.2     2.0
     2.0     0.6    -8.6    -7.3    -8.1    -7.5    -8.0    -7.6    -7.9    -7.7
    -7.9    -7.7    -7.8    -7.8    -7.8    -7.8    -7.7    -7.9    -7.6    -8.0
    -7.4    -8.7    -1.7     3.2     0.1     8.7    11.9    11.3    10.9    17.2
    22.8    19.0    28.3    30.5    31.0    28.9    20.9    20.2     9.8     0.1
    -7.6   -13.1   -20.0   -26.4   -28.1   -37.3   -35.6   -37.8   -29.7   -26.6
   -21.9   -10.2    -2.2     4.8    10.2    18.1    21.7    20.7    21.2    21.2
    20.0    10.4    12.6     9.6     1.7     1.7     2.6    -4.1   -10.0   -17.4
   -17.0   -18.2   -28.1   -24.8   -17.3   -16.1    -7.3    -3.3    10.2    10.2
    18.3    21.0    26.7    32.1    29.2    32.1    27.8    23.1     0.6     7.6
     3.7    -5.5    -7.0   -14.2   -17.3   -22.9   -28.1   -26.9   -34.4   -27.9
   -28.3   -19.7   -17.6   -11.5    -5.4     1.6     6.8    19.3    20.3    27.2
    31.6    29.8    31.3    29.8    31.8    24.1    19.6     9.6     2.1    -3.6
   -10.3   -17.1   -17.3   -18.0   -28.1   -25.6   -28.0   -25.6   -28.5   -24.1
   -18.7   -10.1    -8.5    -1.2     1.8     7.6    12.9    10.4    12.4    10.0
    18.0    21.8    20.6    20.5    13.8    15.6    -0.8    -5.3    -1.4   -11.1
    -4.6   -15.9   -16.6   -18.6   -10.7    -7.0    -8.5    -6.3     2.3     1.5
     1.9     2.0     1.0     7.9    12.6    10.5    12.2    10.7    12.1    10.6
    12.7     4.9     0.8     3.1    -4.7    -8.7    -7.2    -8.3    -7.4    -8.1
    -7.5    -8.0    -7.7    -7.7    -8.4    -1.9     3.2     0.7     2.6     1.8
    13.6     9.0    14.6     5.0     9.6    13.5    10.4    11.2     0.0     3.8
    -5.3    -8.1    -7.9    -7.1   -14.0   -14.5    -9.8    -7.8    -7.5    -8.2
    -7.3    -8.4    -7.1    -8.5    -6.9    -8.9    -6.4    -9.9     0.0     0.6
     8.9    10.8    17.9    21.4    21.7    14.6    11.0    10.4     1.7    -3.7
    -9.2    -6.8    -8.1   -11.9    -8.7    -6.8    -8.8    -5.9     2.2     1.6
     2.9    12.8     9.8    18.4    21.5    21.4    15.5     9.6    13.8     3.8
     2.8    -4.7    -8.0    -8.6   -18.0   -16.6   -17.4   -17.1   -16.9   -18.1
   -10.8    -7.0    -7.1     3.4     0.5     8.0    18.3    22.0    20.6    21.5
    21.1    20.3    10.8     7.5    -6.7    -6.0   -14.8   -16.6   -23.2   -27.8
   -25.8   -27.8   -20.6   -14.7    -8.2    -1.7     4.3    11.9    10.9    17.4
    23.3    17.5    -0.8     0.7    -0.2     0.3     0.0     0.2     0.1     0.2
     0.1     0.2     0.1     0.1     0.1     0.1     0.1     0.1     0.1     0.1
     0.1     0.1     0.1     0.1     0.1     0.1     0.1     0.1     0.1     0.1
     0.1     0.1     0.1     0.1     0.1     0.1     0.1     0.1     0.1     0.1
