Corrected accelerogram I06465B10            Inst Geological & Nuclear Sciences  
Site 465B     041 12 27S  174 57 15E                      IDS file .. 38420400  
Lower Hutt Collett Street                                                       
Instrument IDS_384     Unit S/N: 384  FS=2.0g SPS=250 Gain=1 Filter=50          
16 bit resl, Triggers:BOTH STA=1.0/LTA=10 (Non-Updating) Alpha=14 Threshold=0.1 
Accelerogram I06465B10                               Processed 2015 May 07      
70 km north of Nelson                                                           
2006 July 23        00:37:37 UT                                                 
Epicentre  40 36 11S 173 15 18E  Bearing N65W  Dist  158km  Depth 180 km Ml 5.50
Number of points  6601    Duration  33.00 sec                                   
Instrument corrected data at 0.005 sec intervals                                
High-pass filter corner is  0.90 Hz and low-pass transition is 20.00-21.00 Hz   
Component N87E  Longitudinal Accelerometer Axis                                 
Acceleration:  peak    -53.2 mm/s/s at  11.34 sec     rms      4.8 mm/s/s       
Velocity:      peak     0.97 mm/s   at  12.33 sec     rms     0.16 mm/s         
Displacement:  peak    0.045 mm     at  12.37 sec     rms    0.008 mm           
    2006       7      23       0      37     379       0       0    1970       1
      40      36      11     173      15      18     180       0       1       0
      41      12      27     174      57      15      87      87     295     158
    4600    1000    1000    6601    6601    6601       0       0       0   -1000
    50.0    0.75    0.00   0.000  0.0000   0.000   0.000   1.000     0.0    0.00
  41.208 174.954   40.60  173.26    5.50    0.00    0.00      0.      0.      0.
   23.00    5.00    5.00   33.00  0.0040  0.0050      0.      0.      0.  9807.0
   -51.4   11.34     5.8   0.000      0.   -53.2   11.34     4.8    53.9   0.000
    0.97   12.33    0.16    1.04   0.000    0.04   12.37    0.01    0.05   0.000
   0.900   0.000   0.000      0.      0.  20.000  21.000   0.000      0.      0.
   0.000   0.000   0.000   0.000  -0.000  -0.000  -0.000  -0.000  -0.000   0.000
   0.000   0.000   0.000   0.000  -0.000  -0.000  -0.000  -0.000  -0.000   0.000
   0.000   0.000   0.000   0.000  -0.000  -0.000  -0.000  -0.000   0.000   0.000
   0.000   0.000   0.000  -0.000  -0.000  -0.000  -0.000  -0.000   0.000   0.000
   0.000   0.000   0.000  -0.000  -0.000  -0.000  -0.000  -0.000   0.000   0.000
   0.000   0.000   0.000  -0.000  -0.000  -0.000  -0.000  -0.000   0.000   0.000
   0.000   0.000   0.000  -0.000  -0.000  -0.000  -0.000  -0.000  -0.000   0.000
   0.000   0.000   0.000   0.000   0.000   0.000  -0.000  -0.000  -0.000  -0.000
  -0.000  -0.000   0.000   0.000   0.000   0.000   0.000  -0.000  -0.000  -0.000
  -0.000  -0.000   0.000   0.000   0.000   0.000   0.000  -0.000  -0.000  -0.000
  -0.000  -0.000   0.000   0.000   0.000   0.000  -0.000  -0.000  -0.000  -0.000
  -0.000   0.000   0.000   0.000   0.000   0.000  -0.000  -0.000  -0.000  -0.000
  -0.000   0.000   0.000   0.000   0.000   0.000  -0.000  -0.000  -0.000  -0.000
  -0.000   0.000   0.000   0.000   0.000   0.000  -0.000  -0.000  -0.000  -0.000
  -0.000   0.000   0.000   0.000   0.000  -0.000  -0.000  -0.000  -0.000  -0.000
   0.000   0.000   0.000   0.000   0.000  -0.000  -0.000  -0.000  -0.000  -0.000
   0.000   0.000   0.000   0.000   0.000  -0.000  -0.000  -0.000  -0.000  -0.000
   0.000   0.000   0.000   0.000   0.000  -0.000  -0.000  -0.000  -0.000  -0.000
   0.000   0.000   0.000   0.000   0.000  -0.000  -0.000  -0.000  -0.000   0.000
   0.000   0.000   0.000   0.000  -0.000  -0.000  -0.000  -0.000  -0.000   0.000
   0.000   0.000   0.000   0.000  -0.000  -0.000  -0.000  -0.000  -0.000   0.000
   0.000   0.000   0.000   0.000  -0.000  -0.000  -0.000  -0.000  -0.000   0.000
   0.000   0.000   0.000   0.000  -0.000  -0.000  -0.000  -0.000   0.000   0.000
   0.000   0.000   0.000  -0.000  -0.000  -0.000  -0.000  -0.000   0.000   0.000
   0.000   0.000   0.000  -0.000  -0.000  -0.000  -0.000  -0.000   0.000   0.000
   0.000   0.000   0.000  -0.000  -0.000  -0.000  -0.000  -0.000   0.000   0.000
   0.000   0.000  -0.000  -0.000  -0.000  -0.000  -0.000   0.000   0.000   0.000
   0.000   0.000  -0.000  -0.000  -0.000   0.000   0.000   0.000   0.000  -0.000
  -0.000  -0.000  -0.000   0.000   0.000   0.000   0.000  -0.000  -0.000  -0.000
  -0.000  -0.000   0.000   0.000   0.000   0.000   0.000  -0.000  -0.000  -0.000
  -0.000  -0.000   0.000   0.000   0.000   0.000   0.000  -0.000  -0.000  -0.000
  -0.000  -0.000   0.000   0.000   0.000   0.000   0.000  -0.000  -0.000  -0.000
  -0.000   0.000   0.000   0.000   0.000   0.000  -0.000  -0.000  -0.000  -0.000
  -0.000   0.000   0.000   0.000   0.000   0.000  -0.000  -0.000  -0.000  -0.000
  -0.000   0.000   0.000   0.000   0.000   0.000  -0.000  -0.000  -0.000  -0.000
  -0.000   0.000   0.000   0.000   0.000   0.000  -0.000  -0.000  -0.000  -0.000
   0.000   0.000   0.000   0.000   0.000  -0.000  -0.000  -0.000  -0.000  -0.000
   0.000   0.000   0.000   0.000   0.000  -0.000  -0.000  -0.000  -0.000  -0.000
   0.000   0.000   0.000   0.000   0.000  -0.000  -0.000  -0.000  -0.000  -0.000
   0.000   0.000   0.000   0.000   0.000  -0.000  -0.000  -0.000  -0.000   0.000
   0.000   0.000   0.000   0.000  -0.000  -0.000  -0.000  -0.000  -0.000   0.000
   0.000   0.000   0.000   0.000  -0.000  -0.000  -0.000  -0.000  -0.000   0.000
   0.000   0.000   0.000   0.000  -0.000  -0.000  -0.000  -0.000  -0.000   0.000
   0.000   0.000   0.000  -0.000  -0.000  -0.000  -0.000  -0.000   0.000   0.000
   0.000   0.000   0.000  -0.000  -0.000  -0.000  -0.000  -0.000   0.000   0.000
   0.000   0.000   0.000  -0.000  -0.000  -0.000  -0.000  -0.000   0.000   0.000
   0.000   0.000  -0.000  -0.000  -0.000  -0.000  -0.000   0.000   0.000   0.000
   0.000  -0.000  -0.000  -0.000  -0.000  -0.000   0.000   0.000   0.000   0.000
  -0.000  -0.000  -0.000  -0.000  -0.000   0.000   0.000   0.000   0.000  -0.000
  -0.000  -0.000  -0.000   0.000   0.000   0.000   0.000   0.000  -0.000  -0.000
  -0.000  -0.000  -0.000   0.000   0.000   0.000   0.000  -0.000  -0.000  -0.000
  -0.000  -0.000   0.000   0.000   0.000   0.000   0.000  -0.000  -0.000  -0.000
  -0.000  -0.000   0.000   0.000   0.000   0.000  -0.000  -0.000  -0.000  -0.000
  -0.000  -0.000   0.000   0.000   0.000   0.000  -0.000  -0.000  -0.000  -0.000
  -0.000   0.000   0.000   0.000   0.000   0.000  -0.000  -0.000  -0.000  -0.000
  -0.000   0.000   0.000   0.000   0.000  -0.000  -0.000  -0.000  -0.000  -0.000
  -0.000   0.000   0.000   0.000   0.000  -0.000  -0.000  -0.000  -0.000  -0.000
   0.000   0.000   0.000   0.000   0.000  -0.000  -0.000  -0.000  -0.000  -0.000
   0.000   0.000   0.000   0.000   0.000  -0.000  -0.000  -0.000  -0.000  -0.000
   0.000   0.000   0.000   0.000  -0.000  -0.000  -0.000  -0.000  -0.000   0.000
   0.000   0.000   0.000   0.000  -0.000  -0.000  -0.000  -0.000  -0.000   0.000
   0.000   0.000   0.000   0.000  -0.000  -0.000  -0.000  -0.000  -0.000   0.000
   0.000   0.000   0.000   0.000  -0.000  -0.000  -0.000  -0.000   0.000   0.000
   0.000   0.000   0.000   0.000  -0.000  -0.000  -0.000  -0.000   0.000   0.000
   0.000   0.000   0.000   0.000  -0.000  -0.000  -0.000   0.000   0.000   0.000
   0.000   0.000   0.000   0.000  -0.000  -0.000   0.000   0.000   0.000   0.000
   0.000   0.000   0.000   0.000   0.000   0.000   0.000   0.000   0.000   0.000
   0.000   0.000   0.000   0.000   0.000   0.000   0.000   0.000   0.000   0.000
   0.000   0.000   0.000   0.000   0.000   0.000   0.000   0.000   0.000   0.000
   0.000   0.000   0.000   0.000   0.000   0.000   0.000   0.000   0.000   0.000
   0.000   0.000   0.000   0.000   0.000   0.000   0.000   0.000   0.000   0.000
   0.000   0.000   0.000   0.000   0.000   0.000   0.000   0.000   0.000   0.000
   0.000   0.000   0.000   0.000   0.000   0.000   0.000   0.000   0.000   0.000
   0.000   0.000   0.000   0.001   0.000   0.000   0.000   0.000   0.000   0.000
   0.000   0.000   0.000   0.001   0.000   0.000   0.000  -0.000  -0.000  -0.000
   0.000   0.000   0.000   0.000   0.000   0.000  -0.000  -0.000  -0.000  -0.000
   0.000   0.000   0.000   0.000   0.000  -0.000  -0.001  -0.001  -0.001  -0.000
  -0.000   0.000   0.000  -0.000  -0.000  -0.001  -0.001  -0.001  -0.001  -0.001
  -0.000  -0.000  -0.000  -0.000  -0.001  -0.001  -0.002  -0.002  -0.001  -0.001
  -0.001  -0.001  -0.001  -0.001  -0.002  -0.002  -0.002  -0.002  -0.002  -0.001
  -0.001  -0.001  -0.001  -0.002  -0.003  -0.003  -0.003  -0.003  -0.002  -0.002
  -0.002  -0.002  -0.002  -0.003  -0.004  -0.004  -0.004  -0.004  -0.003  -0.003
  -0.002  -0.003  -0.003  -0.004  -0.005  -0.005  -0.005  -0.005  -0.004  -0.003
  -0.003  -0.004  -0.004  -0.006  -0.006  -0.007  -0.006  -0.005  -0.004  -0.004
  -0.004  -0.005  -0.006  -0.007  -0.008  -0.008  -0.007  -0.006  -0.005  -0.005
  -0.005  -0.006  -0.007  -0.009  -0.009  -0.009  -0.008  -0.006  -0.005  -0.005
  -0.006  -0.007  -0.009  -0.010  -0.010  -0.010  -0.008  -0.007  -0.006  -0.005
  -0.006  -0.008  -0.010  -0.011  -0.011  -0.010  -0.008  -0.006  -0.005  -0.005
  -0.007  -0.009  -0.011  -0.012  -0.011  -0.009  -0.007  -0.005  -0.004  -0.005
  -0.007  -0.009  -0.011  -0.011  -0.010  -0.008  -0.005  -0.003  -0.002  -0.003
  -0.005  -0.008  -0.010  -0.010  -0.008  -0.005  -0.001   0.001   0.001  -0.000
  -0.003  -0.006  -0.007  -0.007  -0.004   0.000   0.004   0.006   0.006   0.004
   0.000  -0.002  -0.003  -0.001   0.003   0.007   0.012   0.014   0.013   0.010
   0.006   0.003   0.003   0.006   0.011   0.017   0.022   0.023   0.022   0.018
   0.014   0.011   0.012   0.017   0.024   0.030   0.035   0.036   0.033   0.029
   0.024   0.022   0.025   0.031   0.039   0.047   0.052   0.052   0.048   0.042
   0.037   0.036   0.040   0.048   0.059   0.068   0.072   0.071   0.065   0.057
   0.052   0.052   0.058   0.070   0.083   0.093   0.097   0.093   0.084   0.074
   0.068   0.069   0.078   0.094   0.111   0.123   0.126   0.120   0.106   0.091
   0.081   0.081   0.093   0.115   0.141   0.165   0.180   0.183   0.174   0.156
   0.130   0.099   0.060   0.008  -0.060  -0.148  -0.251  -0.361  -0.463  -0.540
  -0.578  -0.568  -0.512  -0.420  -0.309  -0.195  -0.091  -0.001   0.075   0.142
   0.203   0.254   0.282   0.266   0.186   0.030  -0.197  -0.466  -0.729  -0.928
  -1.005  -0.923  -0.679  -0.306   0.130   0.541   0.842   0.973   0.910   0.676
   0.333  -0.032  -0.329  -0.488  -0.476  -0.299   0.001   0.358   0.705   0.984
   1.162   1.229   1.196   1.083   0.909   0.686   0.416   0.099  -0.262  -0.653
  -1.042  -1.385  -1.636  -1.754  -1.719  -1.540  -1.250  -0.902  -0.556  -0.260
  -0.040   0.105   0.201   0.286   0.398   0.558   0.764   0.987   1.181   1.293
   1.286   1.144   0.880   0.535   0.167  -0.168  -0.424  -0.580  -0.639  -0.627
  -0.578  -0.528  -0.499  -0.498  -0.516  -0.535  -0.535  -0.503  -0.435  -0.341
  -0.234  -0.130  -0.038   0.041   0.113   0.184   0.258   0.331   0.387   0.407
   0.371   0.269   0.108  -0.088  -0.280  -0.424  -0.480  -0.427  -0.265  -0.021
   0.261   0.528   0.733   0.842   0.843   0.747   0.579   0.374   0.164  -0.023
  -0.171  -0.274  -0.333  -0.352  -0.339  -0.303  -0.254  -0.204  -0.167  -0.155
  -0.179  -0.235  -0.315  -0.397  -0.458  -0.474  -0.435  -0.343  -0.217  -0.083
   0.030   0.104   0.140   0.157   0.189   0.272   0.432   0.674   0.971   1.275
   1.523   1.656   1.637   1.461   1.156   0.777   0.391   0.057  -0.191  -0.348
  -0.436  -0.497  -0.572  -0.690  -0.853  -1.042  -1.217  -1.336  -1.365  -1.292
  -1.124  -0.890  -0.625  -0.362  -0.123   0.084   0.261   0.416   0.552   0.662
   0.730   0.733   0.653   0.484   0.238  -0.057  -0.359  -0.626  -0.822  -0.927
  -0.941  -0.879  -0.765  -0.626  -0.484  -0.354  -0.246  -0.166  -0.119  -0.113
  -0.153  -0.237  -0.354  -0.477  -0.565  -0.574  -0.465  -0.217   0.163   0.638
   1.145   1.609   1.958   2.141   2.135   1.955   1.643   1.260   0.867   0.518
   0.244   0.055  -0.061  -0.125  -0.164  -0.200  -0.246  -0.309  -0.387  -0.472
  -0.558  -0.635  -0.694  -0.728  -0.730  -0.695  -0.624  -0.520  -0.397  -0.270
  -0.156  -0.072  -0.026  -0.019  -0.044  -0.088  -0.135  -0.172  -0.188  -0.174
  -0.127  -0.044   0.076   0.233   0.421   0.628   0.831   0.995   1.085   1.066
   0.918   0.640   0.261  -0.170  -0.584  -0.910  -1.089  -1.088  -0.907  -0.580
  -0.168   0.253   0.604   0.823   0.871   0.737   0.444   0.038  -0.420  -0.858
  -1.209  -1.422  -1.464  -1.333  -1.053  -0.674  -0.264   0.109   0.383   0.524
   0.527   0.417   0.246   0.071  -0.058  -0.112  -0.092  -0.025   0.048   0.091
   0.085   0.040  -0.008  -0.007   0.088   0.297   0.598   0.926   1.189   1.288
   1.148   0.750   0.137  -0.587  -1.278  -1.789  -2.007  -1.879  -1.433  -0.765
  -0.017   0.661   1.145   1.369   1.333   1.100   0.773   0.462   0.260   0.214
   0.326   0.551   0.821   1.061   1.212   1.242   1.148   0.953   0.697   0.419
   0.153  -0.082  -0.277  -0.433  -0.556  -0.650  -0.719  -0.762  -0.779  -0.772
  -0.746  -0.708  -0.669  -0.636  -0.614  -0.605  -0.604  -0.601  -0.587  -0.553
  -0.495  -0.412  -0.312  -0.204  -0.102  -0.020   0.033   0.052   0.042   0.016
  -0.007  -0.003   0.046   0.154   0.321   0.531   0.755   0.953   1.085   1.118
   1.032   0.831   0.541   0.205  -0.123  -0.389  -0.553  -0.591  -0.507  -0.327
  -0.093   0.144   0.335   0.444   0.453   0.365   0.200  -0.006  -0.215  -0.390
  -0.501  -0.536  -0.493  -0.386  -0.239  -0.081   0.059   0.157   0.198   0.176
   0.100  -0.014  -0.140  -0.253  -0.327  -0.345  -0.305  -0.214  -0.097   0.015
   0.088   0.094   0.020  -0.129  -0.327  -0.535  -0.706  -0.801  -0.798  -0.695
  -0.519  -0.313  -0.128  -0.006   0.030  -0.012  -0.101  -0.187  -0.218  -0.156
   0.007   0.246   0.511   0.736   0.860   0.847   0.697   0.443   0.149  -0.113
  -0.283  -0.329  -0.253  -0.093   0.095   0.255   0.345   0.352   0.293   0.203
   0.124   0.088   0.102   0.151   0.201   0.215   0.165   0.050  -0.108  -0.267
  -0.377  -0.403  -0.331  -0.179   0.012   0.187   0.297   0.314   0.237   0.095
  -0.069  -0.208  -0.289  -0.301  -0.253  -0.173  -0.085  -0.008   0.061   0.141
   0.256   0.426   0.649   0.897   1.119   1.251   1.238   1.051   0.703   0.247
  -0.230  -0.633  -0.880  -0.926  -0.776  -0.482  -0.131   0.183   0.380   0.413
   0.286   0.042  -0.248  -0.505  -0.665  -0.694  -0.594  -0.399  -0.164   0.051
   0.198   0.250   0.203   0.074  -0.104  -0.299  -0.480  -0.630  -0.742  -0.820
  -0.873  -0.912  -0.945  -0.972  -0.987  -0.974  -0.913  -0.780  -0.559  -0.242
   0.162   0.622   1.089   1.499   1.785   1.891   1.788   1.483   1.025   0.495
  -0.004  -0.373  -0.542  -0.483  -0.223   0.164   0.570   0.888   1.029   0.956
   0.682   0.273  -0.173  -0.554  -0.790  -0.845  -0.733  -0.511  -0.258  -0.056
   0.043   0.025  -0.082  -0.217  -0.310  -0.300  -0.159   0.106   0.451   0.811
   1.118   1.319   1.385   1.322   1.157   0.929   0.676   0.426   0.191  -0.030
  -0.241  -0.445  -0.633  -0.789  -0.890  -0.917  -0.863  -0.739  -0.571  -0.395
  -0.251  -0.163  -0.139  -0.167  -0.218  -0.258  -0.259  -0.208  -0.115  -0.008
   0.076   0.098   0.033  -0.125  -0.357  -0.628  -0.888  -1.090  -1.196  -1.182
  -1.045  -0.799  -0.470  -0.093   0.295   0.659   0.966   1.187   1.299   1.287
   1.147   0.887   0.534   0.127  -0.280  -0.628  -0.865  -0.953  -0.876  -0.651
  -0.319   0.057   0.403   0.654   0.763   0.714   0.522   0.237  -0.079  -0.355
  -0.538  -0.598  -0.537  -0.385  -0.190  -0.002   0.137   0.210   0.221   0.194
   0.157   0.137   0.142   0.162   0.171   0.139   0.044  -0.114  -0.312  -0.510
  -0.657  -0.714  -0.664  -0.517  -0.312  -0.101   0.070   0.175   0.219   0.236
   0.274   0.379   0.574   0.841   1.129   1.360   1.459   1.372   1.092   0.664
   0.172  -0.279  -0.594  -0.718  -0.647  -0.429  -0.150   0.097   0.239   0.239
   0.111  -0.096  -0.310  -0.467  -0.525  -0.481  -0.362  -0.215  -0.089  -0.017
  -0.006  -0.038  -0.078  -0.093  -0.059   0.028   0.151   0.279   0.377   0.416
   0.381   0.270   0.090  -0.141  -0.404  -0.674  -0.925  -1.122  -1.226  -1.203
  -1.029  -0.703  -0.259   0.240   0.704   1.044   1.188   1.111   0.837   0.446
   0.046  -0.249  -0.358  -0.252   0.030   0.397   0.728   0.908   0.864   0.584
   0.122  -0.421  -0.919  -1.264  -1.393  -1.297  -1.027  -0.671  -0.326  -0.072
   0.045   0.026  -0.091  -0.247  -0.381  -0.444  -0.415  -0.296  -0.107   0.118
   0.348   0.556   0.720   0.830   0.875   0.853   0.766   0.621   0.436   0.239
   0.059  -0.079  -0.157  -0.180  -0.170  -0.162  -0.199  -0.309  -0.504  -0.763
  -1.041  -1.272  -1.391  -1.348  -1.122  -0.733  -0.233   0.300   0.782   1.142
   1.340   1.367   1.252   1.046   0.810   0.594   0.429   0.319   0.243   0.168
   0.057  -0.111  -0.335  -0.590  -0.835  -1.020  -1.105  -1.072  -0.931  -0.716
  -0.479  -0.275  -0.142  -0.092  -0.109  -0.147  -0.154  -0.079   0.104   0.392
   0.747   1.109   1.410   1.593   1.624   1.504   1.264   0.954   0.632   0.346
   0.126  -0.020  -0.104  -0.148  -0.175  -0.203  -0.241  -0.292  -0.352  -0.415
  -0.475  -0.527  -0.561  -0.563  -0.518  -0.413  -0.246  -0.027   0.209   0.418
   0.547   0.554   0.423   0.170  -0.150  -0.461  -0.678  -0.737  -0.609  -0.310
   0.098   0.527   0.884   1.099   1.138   1.014   0.773   0.485   0.216   0.012
  -0.108  -0.158  -0.169  -0.176  -0.206  -0.271  -0.363  -0.463  -0.548  -0.601
  -0.613  -0.582  -0.513  -0.410  -0.274  -0.109   0.077   0.264   0.420   0.507
   0.487   0.339   0.071  -0.273  -0.620  -0.883  -0.982  -0.866  -0.534  -0.035
   0.541   1.080   1.478   1.661   1.602   1.320   0.874   0.340  -0.207  -0.708
  -1.127  -1.446  -1.661  -1.768  -1.759  -1.621  -1.347  -0.943  -0.437   0.120
   0.657   1.101   1.390   1.489   1.394   1.138   0.776   0.374  -0.007  -0.320
  -0.539  -0.658  -0.686  -0.640  -0.542  -0.413  -0.275  -0.151  -0.061  -0.019
  -0.032  -0.094  -0.188  -0.283  -0.349  -0.360  -0.302  -0.182  -0.019   0.152
   0.300   0.395   0.423   0.383   0.281   0.130  -0.057  -0.267  -0.486  -0.693
  -0.860  -0.949  -0.922  -0.748  -0.421   0.039   0.577   1.121   1.590   1.920
   2.077   2.066   1.925   1.712   1.481   1.270   1.087   0.913   0.720   0.484
   0.204  -0.093  -0.357  -0.532  -0.581  -0.502  -0.333  -0.142  -0.009   0.005
  -0.121  -0.358  -0.634  -0.860  -0.960  -0.898  -0.689  -0.396  -0.110   0.090
   0.157   0.094  -0.047  -0.188  -0.259  -0.219  -0.078   0.107   0.255   0.290
   0.170  -0.095  -0.450  -0.809  -1.088  -1.234  -1.236  -1.129  -0.971  -0.817
  -0.699  -0.610  -0.514  -0.367  -0.140   0.156   0.470   0.719   0.825   0.740
   0.473   0.092  -0.293  -0.568  -0.654  -0.537  -0.274   0.028   0.251   0.311
   0.191  -0.047  -0.284  -0.387  -0.263   0.108   0.652   1.226   1.664   1.834
   1.687   1.274   0.738   0.259  -0.003   0.032   0.337   0.782   1.182   1.355
   1.189   0.679  -0.071  -0.879  -1.549  -1.932  -1.973  -1.721  -1.311  -0.909
  -0.655  -0.616  -0.770  -1.020  -1.235  -1.301  -1.166  -0.852  -0.447  -0.068
   0.186   0.270   0.209   0.088   0.015   0.080   0.319   0.702   1.135   1.504
   1.705   1.689   1.470   1.126   0.763   0.482   0.345   0.358   0.472   0.612
   0.700   0.692   0.584   0.416   0.246   0.131   0.096   0.135   0.207   0.259
   0.247   0.156   0.001  -0.180  -0.345  -0.465  -0.543  -0.607  -0.703  -0.865
  -1.101  -1.380  -1.637  -1.796  -1.796  -1.616  -1.289  -0.897  -0.544  -0.325
  -0.292  -0.436  -0.686  -0.934  -1.069  -1.010  -0.734  -0.284   0.252   0.765
   1.163   1.395   1.463   1.415   1.318   1.232   1.188   1.176   1.158   1.079
   0.901   0.616   0.255  -0.123  -0.445  -0.652  -0.715  -0.644  -0.480  -0.280
  -0.097   0.036   0.109   0.132   0.123   0.093   0.041  -0.048  -0.188  -0.381
  -0.607  -0.817  -0.946  -0.934  -0.747  -0.398   0.050   0.497   0.829   0.956
