Origin Time       1999/01/27 10:27:00
Lat.              34.820
Long.             139.647
Depth. (km)       38
Mag.              3.6
Station Code      SZO003
Station Lat.      34.8158
Station Long.     139.0544
Station Height(m) 149
Record Time       1999/01/27 10:27:55
Sampling Freq(Hz) 100Hz
Duration Time(s)  119
Dir.              N-S
Scale Factor      2000(gal)/8388608
Max. Acc. (gal)   25.836
Last Correction   1999/01/27 10:00:00
Memo.             
    1129      913      431     1026      624     1751      628     1270 
     511      774      614      249     1116      535     1626      802 
    1167      303      443     1071      743     1712      307     1483 
     365      912      277      849     1321      701     1356      107 
     993      -31     1281      637     1215      839      959     1100 
     696     1264      367     1257      368     1273      381     1104 
     570     1132     1111      740      666      -99      913      562 
    1646      654     1238      561     1123      830      702      706 
     448     1292      688     1071      286     1261      613      811 
     351     1370     1258     1172      226      539      824     1278 
    1178      638      665      574     1017      296      640      152 
    1409     1092     1710      959     1601      833      851      374 
     360      330      720     1392      858      794      253      986 
     586      947      481     1410     1081     1134      317      763 
     899     1425     1019      630      492      726      945      782 
     750      739     1003      618      770      785     1353      699 
     978      536     1135      472     1026      596     1262      747 
    1263      535      736      490     1109      815      717      601 
     783     1220     1092     1353      645      539      190      972 
     663     1269      823     1373      366      847      182     1124 
     685     1471      783     1239      656      945      809      722 
     831       76      507      354     1909     1025     1644      540 
    1075      171      742      393     1057      964      798      689 
     661     1405     1128     1282       40      531      107     1280 
     877     1370      736      906      835      431     1105      447 
    1506      167     1052      321     1236     1183      857     1419 
     143     1613      -87     1431     -262      889     1070     1108 
    1809      -20     1580     -141     1188      274      408     1156 
     634     1511      580      786      887     1053     1500     1072 
     852      576      356      203      729      821      946     1339 
    1160      862      736      552       77      737      566     1717 
    1501      713      846      616      651      601     1294     1556 
    1386      686      303      607     -113      803      200      470 
    1236     1517     2016      914      750     -337       98      -17 
    1201     1229     1623     1498     1583     1674     1295      368 
    -319     -288      -68      745      940     1735     1188     1424 
     -16       22      206      141     1720      572     1501     1123 
    1579     1231      500      342      127     1101      736     1700 
    1234     1067      733      -14      292      971      965      696 
     916      824      926      989      644      796      651     1059 
     687      502      814     1043      643      913     1584     1353 
     754      424      372      595      491      896     1139     1275 
     917      942      724      886      644      487      793     1356 
     967      759      822      970      676      161      748     1181 
    1213      493      629      533      821      836     1210     1828 
    1716     1140     -233     -449      -30      652     1227      853 
    1170      978     1004      432      329     1075     1140     1232 
     463      426      912     1299     1163      622      529      836 
    1019      854      540      615      923      976      838      650 
     708     1029     1150     1025      756      778     1067      959 
     832      510      504      588      810     1109      972      893 
     948      904      676      456      927     1158      942      679 
     588      938     1051      947      768      541      809      724 
     690      689      813     1224     1164     1029      596      496 
     720      857      905      839      638      924     1017     1126 
     609      539      874     1083     1050      681      624      843 
     783      678      461      660     1115     1199     1138      805 
     704      930      794      825      663      800      957      914 
     763      606      826      876      971      836      597      632 
     929     1162      807      373      450     1002     1158     1092 
     672      872     1015      940      660      533      851     1312 
     984      715      562      956     1007      692      473      549 
     692      942      895      856      690      938     1077     1135 
     985      680      600      770      916      943      707      770 
    1137     1211      817      363      411      803      913      769 
     674      692     1145      868      841      751      927     1009 
     910      793      833      713      926     1047     1091      875 
     612      796      846      842      555      575      731     1001 
     892      574      679     1120     1288     1068      537      771 
     925     1094      879      713      698      827      968      935 
     866      710      585      559      772      885      902      791 
    1083     1060      974      817      733      880      883      636 
     701      752      997     1066      810      731      710      957 
    1000      716      686      659      947     1027     1000      708 
     540      504      849     1051      985      945      863      863 
     822      863      817      795      865      834      647      712 
     857     1044      983      908      817      909      757      703 
     635      732      817      841     1188     1387     1097      555 
     254      601      936      880      746      669      967     1015 
     917      662      730      811     1059      908      877      702 
     588      828      997      908      784      702     1010      984 
     632      418      623     1042     1153      810      557      625 
     854     1167      928      897      745     1071      945     1084 
     744      698      454     1070      842      795      428      664 
     969     1108     1068      778      714      833      867      766 
     751      787     1208     1159      788      412      603      934 
     989      773      723      584      725      940     1020      844 
     561      664     1058     1056      815      654      851     1209 
     907      583      549      755      989      901      793      808 
     774      885      800      713      693      657      854      982 
     996      740      756      947      936      662      607      815 
    1109     1131      673      576      731      943      890      695 
     698      904      999     1043      719      482      453      648 
    1225     1382     1136      599      544      886     1145      895 
     714      625      701      716      753      694      816      939 
    1025      743      505      529      649      788      646      651 
    1167     2688     4369     4740     2497    -1548    -5462    -6748 
   -4777     -813     2539     4372     5895     8350     9227     5917 
   -2171   -10931   -13758    -7724     3344    10823     9480     1927 
   -4439    -2632     6914    14828    11815    -1093   -14782   -18272 
   -9443     3512    11691    10862     2596    -6976    -9488    -2133 
    8871    14931    11506     1447    -6408    -6372    -1388     3124 
    3036     -716    -5634    -6791    -1323     6264     7388      272 
   -7061    -6266     3023    11734    11752     4059    -2880    -5479 
   -4127      787     6381     8204     3599    -4084    -7837    -3783 
    2970     6158     3593    -1325    -4812    -5255    -3006      608 
    4364     7180     7169     5071      340    -4339    -6227    -4899 
   -2201      573     3939     6891     7967     6839     3785     -465 
   -3417    -1805     2685     3981      -88    -5327    -6566    -3178 
    2028     4717     3685      414    -2923    -4522    -4218    -2584 
     201     3774     8041    10830    10637     8392     4140     -440 
   -3609    -5554    -5768    -3243      157     1875      600    -2133 
   -3425    -2633    -1184      197      525      399      720     2740 
    7114    10670    10802     6611     -590    -6991    -9538    -8162 
   -3832      629     3980     6202     6276     5615     4572     2219 
   -1645    -5344    -6641    -3783      927     4089     4336     2864 
     791    -1162     -579     2176     4458     4354     2258      309 
   -1074    -2102    -2781    -2227      441     3023     2270    -1419 
   -3677    -1756     2298     5201     5442     3679     2474     3411 
    3641     1079    -2042    -3845    -3200     -600     2282     3731 
    2154    -2053    -6194    -6201    -1780     4322     7317     6686 
    3440     -710    -3126    -1324     3346     6871     5356      546 
   -2614    -1472     1739     2487      493    -1183     -613      984 
    1559      316    -1571    -2247    -1066     -275    -1540    -3684 
   -4348    -2551     1477     5859     8930    11025    11049     7583 
    1141    -3960    -4589    -2215      276     1118     -251    -2895 
   -5139    -4791    -1328     2499     4263     3173      729     -783 
    -778       -7     1661     3637     4156     2964     1996     1410 
    1481     1314      120    -2349    -3681    -1975     1339     3857 
    3473     1183     -873    -1548     -474     1111     2571     2847 
    1893      217     -565     -392      231     1223     3302     5279 
    5360     3263      233    -2253    -3814    -4451    -3684    -1023 
     886      362    -1109    -1197     1098     4745     6882     6954 
    4278     -276    -3604    -2749     1226     4132     3601     1799 
     509     -420    -1908    -3173    -3096    -1356      615     1785 
    1800     1799     2100     2385     2563     2128     1013      370 
     407      529      589     1123     2525     3336     2257     -207 
   -2446    -3357    -1690      407      805      113      920     3132 
    4232     2535     -296    -1600     -868      910     2056     1891 
    1534     2295     3701     3220      -85    -3346    -3694      -57 
    4626     6764     5182      834    -4174    -7735    -8604    -5758 
     -40     6138     8821     6170     1907      712     2147     2995 
    1507     -604    -1215       35     2223     4340     4767     3245 
    -775    -5996    -7897    -5067     -112     3436     5125     5168 
    3668     1124    -1672    -3228    -1863     1576     4066     4224 
    2045     -231    -1102     -738      983     2477     2548     1344 
    -255     -876      257     2108     3523     3089     -176    -3682 
   -4094    -1224     2335     4439     4228     2098     -717    -2463 
   -2441     -949     1200     2718     3101     2992     2347     2208 
    2043     1469      562     -601    -1241     -720      457     1413 
    1121     -699    -1637    -1474     -182      765     1158     1829 
    3394     4266     3492     1185     -410     -599     -428     -759 
    -346     1338     3073     3095     1491     -187    -1345    -2206 
   -2367    -1704      330     2437     3353     3687     4188     4700 
    4182     2367      206    -2189    -4547    -5071    -3356      482 
    3464     4063     1470    -1646    -2420     -461     2019     3436 
    3657     3122     3125     3337     2185      421    -1022    -1526 
   -2021    -2143     -694     2158     3974     3516     1826     -312 
   -2082    -3017    -1866      525     2497     3321     3374     3212 
    2305      -77    -2794    -3962    -2460     1324     4904     6708 
    6066     2891    -1241    -4064    -4124    -1705      895     2146 
    2551     1995      233    -1664    -2140       -3     2152     2891 
    2938     2757     2500     2587     2604     2230      216    -2713 
   -5089    -4806    -1623     3005     5310     4218     2016      495 
     457      686     1160     1796     2223     1915      325    -1128 
   -1890    -1226      281     2550     3601     2074     -569    -1573 
    -326     1098     1487      124    -1906    -2334     -361     2345 
    4591     5992     6088     4018      714    -2416    -3699    -3476 
   -1992     -155     1691     2217     1967     1552     1636     1612 
     900     -681    -1732     -314     2324     4101     3473     1006 
   -2349    -4129    -2371     2444     6198     6863     4716     1441 
   -1688    -3548    -4025    -2661     -157     1601     2196     2654 
    3320     3228     1607     -369    -1269     -838      710     1483 
     296    -1500    -1572      571     3156     3368     1410     -142 
     231     1560     2303     2771     2765     1488     -749    -2194 
   -1753     -466      367     1828     3973     4133     1669    -2215 
   -5050    -4793    -1791     2247     5991     8295     7466     3559 
   -1871    -4916    -4589    -2518     -450      467      168      373 
    1503     3175     4715     5123     3766      671    -2135    -2800 
    -843     1891     2910     1597        5      -41     1027     1793 
    2075      534    -1847    -2570     -854     2463     2938      433 
   -2163    -2063      646     3207     3483     3026     2926     2043 
    1031      988     1962     2364     -245    -3660    -4621    -2774 
     774     3308     4462     5049     4493     2052    -1357    -5356 
  -10542   -17154   -23106   -23830   -17638    -4338    13179    32643 
   51386    65428    70499    64412    47232    19714   -14051   -48163 
  -77937   -99026  -107582   -97981   -70192   -30511    10293    39732 
   54684    61336    67453    74403    77556    70175    53375    29929 
    2554   -30042   -61301   -77436   -70504   -46610   -19032    -3087 
   -5485   -13032   -11278     5491    27190    40451    37985    22306 
    7254     1214     1350     1273    -5546   -15807   -23903   -22858 
  -12541     3101    13707    13135     5142     3146    10815    20794 
   27456    36797    46920    46796    20600   -21844   -58174   -76103 
  -78202   -72455   -61592   -41056    -7193    30760    65125    88073 
   93373    76962    46868    14935   -12088   -33081   -41752   -43132 
  -34674   -26897   -19689   -15060   -10014    -7247    -7389    -5246 
   -1553     6490    18028    32396    44577    50116    49520    42337 
   26000     5887   -16996   -36173   -50942   -61344   -66834   -61520 
  -44945   -21583     4891    28574    45082    56715    61101    56700 
   41515    18894    -2798   -16808   -21928   -21822   -17311    -9575 
   -2040     1907      178    -8613   -18627   -23933   -21073   -12731 
   -3068     3682     6705     8808    14974    23913    27945    23581 
   12894     1681    -2255     -436     3428     4888     3510      710 
   -2496    -4725    -8851   -14110   -19162   -20740   -18958   -16671 
  -14105    -9570    -1154     7424    13611    18349    22091    26014 
   30798    32825    28056    16326     1776    -8051   -13604   -16938 
  -19457   -19979   -19028   -18275   -18086   -18236   -14830    -5290 
    5629    13402    15444    14727    13295    13083    13645    14329 
   12949    10567    10020     9160     6170    -1090   -10742   -20144 
  -24767   -23212   -14699    -3867     5431    10475    10473     8691 
    8143     7455     6947     4598     3559     1617    -1731    -8570 
  -14856   -16252   -10017     -312     7803    12422    14520    14198 
   12564     7453      196    -4958    -5401    -2365       30      703 
   -1085    -5273    -9200    -9992    -5825     2014     9529    12372 
   10025     5968     1690    -1679    -2331     1264     5577     5400 
    -899    -8752   -13625   -12552    -6456      335     4189     4912 
    5988     7637     9446    11751    12290     9917     5121      353 
   -3084    -4579    -6137    -7555    -8477    -8067    -8119    -8556 
   -6804    -1239     5509    11095    14496    14733    13705    13129 
   11485     6073    -2752   -11885   -17925   -18123   -13733    -7787 
   -2524     1625     4876     6519     7135     7290     8274     7309 
    4676     2325     1300     1519     1594      644     -483    -1626 
   -2594    -3462    -3204    -1769      952     2740     2574      562 
   -2200    -3547    -1860     1918     5453     6350     6139     5097 
    3906     1968    -1383    -4705    -6278    -5084    -2195      240 
    1822     3001     3709     4711     4905     3715     2026      832 
     991     1213     -210    -1942    -2796    -2855    -2967    -2004 
    -476     1076     3643     6470     7831     7032     4738      225 
   -4903    -7306    -6464    -3747     -640     1828     2668     3165 
    3330     3322     2987     4394     6717     6401     2991    -1563 
   -5696    -8011    -8131    -7276    -4341       67     3370     4136 
    4330     4899     6399     7792     7792     5909     3377      723 
   -2064    -3545    -2854    -1948    -1601    -2894    -4141    -3221 
    -569      765      939     1618     3070     5259     6520     5690 
    3259      881     -677    -2350    -3059    -2769    -2388    -1368 
    -116      589     2114     3136     2415     1874     2784     4265 
    4136     3141     1177     -866    -2319    -2949    -2705    -2377 
   -2462    -2005     -539      737     1716     3508     4724     4299 
    3282     2993     3808     4921     4619     2601     -591    -2301 
   -2943    -2099     -712      181      287     -960    -2824    -4277 
   -3826    -2891    -1106      834     2600     4271     5654     5170 
    2785     1373     1844     3278     3978     3647     1465      595 
    1362     2300     2548     1453    -1140    -3524    -4931    -4361 
   -1923      592     1292      848     1442     2197     1628     -329 
   -2607    -2740     -148     2996     5080     5884     5445     3576 
    1310      159      230      568       -5     -930     -588      792 
     776     -510    -2186    -3052    -3340    -2930    -1881     -248 
    2123     3523     3553     3112     3216     4071     5530     6624 
    6325     4395     1683    -1434    -3726    -4419    -4164    -3472 
   -2606    -1532     -165     2034     3346     2283     -202    -1379 
    -648     1765     4492     5915     5915     4717     2183     -950 
   -3495    -4637    -4549    -3157    -1150      860     2874     3763 
    3006     1729     1216     1185     1427     1480     2218     3479 
    5093     4020      310    -3682    -5143    -4227    -2252    -1219 
    -218     1696     3514     3531     2116      680      189      684 
    1056     1342     1596     2174     1759      288     -915     -696 
    -219      599     2833     5753     6770     5057     1757     -366 
    -813    -1572    -3684    -4665    -2405      870     1540    -1357 
   -4505    -4162      138     4692     6800     6996     5565     2784 
    -380    -2066    -1791      -71     1469     1370       26    -1140 
    -754       36     1276     2358     2137      683      583     1750 
    3098     2919      703    -1914    -1791     1383     4565     4768 
    2655     -304    -2906    -3975    -3150    -1325        3      844 
     509     -717    -1891    -1432     1070     5158     7500     6151 
    2749      612      880     1917     1846      996      -57     -562 
    -980    -1051     -335     1504     2268     1140    -1015    -2197 
   -1689      538     2851     2862      923    -1287    -2416    -2277 
